{"type": "FeatureCollection", "features": [{"type": "Feature", "geometry": {"type": "MultiPolygon", "coordinates": [[[[-117.06510188300217, 32.56910896884421], [-117.06397069002988, 32.56910580164814], [-117.06390748616269, 32.569115495548594], [-117.06389128028428, 32.569118007584905], [-117.06384595575483, 32.56913067530193], [-117.0638297720388, 32.569135592097616], [-117.06378611779485, 32.5691534021398], [-117.063732843853, 32.569183987429064], [-117.06342165397109, 32.56852366161092], [-117.06332236219409, 32.568315433576856], [-117.05803966270415, 32.56829386024412], [-117.05615723038433, 32.56828609710366], [-117.05327955455428, 32.56827417099054], [-117.04928636488293, 32.568207564188285], [-117.04865687599565, 32.56819705176405], [-117.04088250278836, 32.56811255872832], [-117.0407883810243, 32.568113163257344], [-117.04065199288281, 32.56810579097564], [-117.04048317039809, 32.56810138074027], [-117.04028514095268, 32.568097154989644], [-117.04028763932402, 32.56808436682259], [-117.0403130751281, 32.56795405535025], [-117.04036948120215, 32.567728316153236], [-117.04041063693492, 32.56761261905219], [-117.0408519169799, 32.56542200224539], [-117.04057609724295, 32.565429273256846], [-117.0399184164952, 32.5642932239861], [-117.03985782287923, 32.56423142864656], [-117.03982679763298, 32.56420998349519], [-117.03979577547483, 32.56418888187469], [-117.03976475947728, 32.564168467323825], [-117.03973374673954, 32.56414805274434], [-117.0397011109546, 32.564128335684096], [-117.03967010729033, 32.56410929526426], [-117.03963586128131, 32.5640906191896], [-117.03960324107396, 32.564072276237475], [-117.03957062702445, 32.56405462035415], [-117.03953639010024, 32.564037318427495], [-117.03950216275223, 32.56402035998844], [-117.03946793831535, 32.56400408863812], [-117.03943209732094, 32.56398851476012], [-117.03939625943518, 32.56397328715873], [-117.03936205036813, 32.56395873072423], [-117.03932850169936, 32.563945434341456], [-117.03932622169548, 32.56394453097028], [-117.03928877339307, 32.563930685147156], [-117.03925295702722, 32.56391785952674], [-117.03921714067174, 32.56390503389593], [-117.03917971082683, 32.563893249271885], [-117.03914228406238, 32.56388180817523], [-117.03910486037798, 32.5638707106059], [-117.03906744284328, 32.56386030010263], [-117.03903003145747, 32.563850576665416], [-117.03899100350891, 32.56384155069286], [-117.03895360134868, 32.56383285784857], [-117.0389145795549, 32.563824518929216], [-117.0388771896871, 32.563817200216555], [-117.03883818018458, 32.563810235427866], [-117.03879917375734, 32.563803614165536], [-117.03876017654288, 32.56379802350698], [-117.03872117933336, 32.563792432836095], [-117.03868219133479, 32.563787872769026], [-117.03864320947726, 32.563783999767026], [-117.03860260798187, 32.56378048068492], [-117.03856363226751, 32.56377729473514], [-117.03852466576015, 32.56377513938921], [-117.03848407961306, 32.563773337961614], [-117.03844512231261, 32.56377221320667], [-117.03840616808077, 32.563771431978125], [-117.03836559727496, 32.563771348205066], [-117.0383266520679, 32.56377194112708], [-117.03828771948545, 32.56377322107263], [-117.03824716401384, 32.563774854954175], [-117.038208237384, 32.563777165511546], [-117.03816931688547, 32.563780163134105], [-117.03812877980755, 32.56378385820905], [-117.03808986850248, 32.56378788642267], [-117.0380509633263, 32.56379260170145], [-117.03801206118746, 32.56379765775835], [-117.03797316522505, 32.56380340637709], [-117.03793427536458, 32.56380983931272], [-117.03789539162968, 32.56381695931348], [-117.03785651095394, 32.56382442284073], [-117.03781926235841, 32.56383256302928], [-117.03778038761943, 32.56384105716947], [-117.03774314495948, 32.56385022797198], [-117.0377042857103, 32.5638600962224], [-117.03766705222858, 32.563870297618145], [-117.03762982489195, 32.56388118882841], [-117.03759260362597, 32.56389276160833], [-117.037555385439, 32.563904680664045], [-117.03751817661575, 32.5639172867653], [-117.03641241877469, 32.56421156645765], [-117.03634545099607, 32.55906102791445], [-117.03633301383691, 32.558757745467204], [-117.03631155575427, 32.55871699909273], [-117.0362884781345, 32.558676606616245], [-117.03626378422472, 32.55863656801615], [-117.03623908690584, 32.55859687299132], [-117.03621439282996, 32.558557175192625], [-117.03618808232953, 32.55851818032469], [-117.03616015227402, 32.558479536602846], [-117.03613222836007, 32.5584415799521], [-117.03610430447013, 32.558403623295085], [-117.03607476411042, 32.55836636406936], [-117.03604522683386, 32.558329448375254], [-117.03601406998203, 32.55829288107554], [-117.03598129676136, 32.558257022197566], [-117.035950149184, 32.55822149099448], [-117.0359364980981, 32.55820753073431], [-117.03591575947512, 32.55818632403841], [-117.03588299851532, 32.55815183379247], [-117.03584861803263, 32.558117697433744], [-117.03581262108582, 32.558084258499534], [-117.03577662722346, 32.5580511630935], [-117.03574063950212, 32.558018754754336], [-117.03570303226054, 32.55798670029865], [-117.03566543115974, 32.557955332908826], [-117.03562621359639, 32.557924662939136], [-117.0355869991167, 32.55789433649569], [-117.03554779402171, 32.55786469709639], [-117.03550696597406, 32.55783575515604], [-117.03546614425434, 32.557807156720195], [-117.03542370607288, 32.55777925569972], [-117.03538127402945, 32.557752041741985], [-117.0353388481231, 32.55772551484698], [-117.03529642835281, 32.55769967501469], [-117.03525238906461, 32.55767418905583], [-117.0352083559117, 32.55764939015855], [-117.0351627093509, 32.557625632209664], [-117.03511706586922, 32.55760221778256], [-117.03507142852055, 32.55757949041586], [-117.03502579730386, 32.55755745010957], [-117.03497854962266, 32.55753610720945], [-117.0349313111259, 32.55751579490717], [-117.03488407568013, 32.557495823377124], [-117.03483684638711, 32.55747654165462], [-117.03478800065186, 32.55745796008285], [-117.03473916731724, 32.55744040633873], [-117.03469033056456, 32.55742319615521], [-117.03464150623428, 32.557407016547685], [-117.03459106238172, 32.55739119080004], [-117.03454062770423, 32.55737639564775], [-117.03449182174013, 32.55736227721283], [-117.03443977671162, 32.55734886651317], [-117.03438936344587, 32.55733647606956], [-117.03433895324582, 32.55732442914399], [-117.03428692962224, 32.55731342315037], [-117.03423491535911, 32.55730310419144], [-117.03418290071961, 32.557293472329185], [-117.03413089543817, 32.55728452750163], [-117.03407889931883, 32.557276613268144], [-117.03402690930947, 32.55726938609], [-117.03397492543328, 32.55726284871556], [-117.03392132502552, 32.557257003231705], [-117.03386935638866, 32.5572521807577], [-117.03381577126629, 32.55724805566956], [-117.03376381483767, 32.557244607305726], [-117.03371024192124, 32.55724185632633], [-117.03366632241435, 32.55724039337239], [-117.03365830074486, 32.55724012561132], [-117.03360474307787, 32.55723909227939], [-117.0335511915091, 32.55723874600151], [-117.0334992717, 32.557239422738476], [-117.0334457353474, 32.55724079135982], [-117.03339220511323, 32.55724284978352], [-117.03334030356208, 32.55724558493723], [-117.03328678855982, 32.55724936100855], [-117.03323490223785, 32.557253813811236], [-117.03318139941425, 32.557258963991515], [-117.0331295283155, 32.5572651344432], [-117.03307604071206, 32.557272002271134], [-117.03302418178404, 32.557279546833236], [-117.03297232893958, 32.55728777845089], [-117.03292048217753, 32.55729669712411], [-117.03286864454248, 32.557306646391574], [-117.032816812987, 32.557317282714635], [-117.03276498750988, 32.55732860609326], [-117.03271479374716, 32.55734094975032], [-117.03266460301543, 32.55735363692564], [-117.03256909842095, 32.55738001088925], [-117.03228263369417, 32.557510498073796], [-117.03075090167953, 32.55820819219808], [-117.02959023909462, 32.55779159665831], [-117.02859361977121, 32.5572069837618], [-117.02719489212062, 32.55665650934813], [-117.02704094619389, 32.55594253711324], [-117.02633611791926, 32.554952037439314], [-117.02556131268845, 32.554490715722046], [-117.02509508007745, 32.554399877199955], [-117.02478924345398, 32.554340289023095], [-117.02477451590168, 32.55266175846474], [-117.02410026997586, 32.55126703298513], [-117.02372868553982, 32.55071005709431], [-117.021637866403, 32.55078536433845], [-117.0201300422952, 32.550546070671146], [-117.01964734759763, 32.54989633006534], [-117.01945209334437, 32.54852984814785], [-117.01948398787276, 32.54790780971577], [-117.0207651518298, 32.547464850876565], [-117.02193598143093, 32.547208778755696], [-117.02303242637166, 32.5466113228431], [-117.02361456044268, 32.54601709037893], [-117.02427132600066, 32.545608593924754], [-117.02415446631274, 32.54486346550567], [-117.02343306566709, 32.544745693812175], [-117.02268567312242, 32.544623958370664], [-117.022569913054, 32.54400284868543], [-117.02290552548634, 32.54300789929864], [-117.02383553001307, 32.54292771046327], [-117.02514547593654, 32.54281525509799], [-117.02603719677693, 32.54273869876921], [-117.02605838575398, 32.54273688037653], [-117.02634211769333, 32.54271261706851], [-117.02656961678504, 32.5426931686298], [-117.02661722061875, 32.54268899296975], [-117.0267257962827, 32.542679457858235], [-117.02687390805157, 32.54266673503088], [-117.0270664728205, 32.54265020238643], [-117.02709150702695, 32.54264803247463], [-117.02720453228329, 32.5426382462245], [-117.02764309005383, 32.5426006754106], [-117.02775539952614, 32.542591052586594], [-117.02819682877131, 32.5425531428324], [-117.02821359184767, 32.54255170660013], [-117.02837181949225, 32.542538126456776], [-117.02893651003562, 32.542489639037], [-117.02935824091709, 32.54245341638451], [-117.02951050539703, 32.54244033427208], [-117.02967686800127, 32.5424260852772], [-117.03168875134834, 32.5422532606052], [-117.031701740262, 32.54225215294374], [-117.03329703482665, 32.542117017154055], [-117.03335364667383, 32.542112226373284], [-117.03417568426961, 32.54204257379337], [-117.03421890503319, 32.54203891508665], [-117.03529426682624, 32.541947791455094], [-117.03530720380917, 32.541946691989374], [-117.03625426352373, 32.541866437806036], [-117.03631885119778, 32.541860965315784], [-117.0364492701426, 32.541849388387234], [-117.0365766484942, 32.54183815506858], [-117.03671860387051, 32.54182562462646], [-117.03677028851673, 32.541821058903984], [-117.0369024814363, 32.541809390450354], [-117.03726230253457, 32.541777615157024], [-117.03834686636917, 32.54168097225538], [-117.03883712281196, 32.54163745650383], [-117.0393585656242, 32.5415911662492], [-117.04161350787386, 32.54139185931116], [-117.04579581942036, 32.541019500240004], [-117.04581527303938, 32.54101783532929], [-117.04837664447118, 32.54079725774935], [-117.04958924334329, 32.540692805724674], [-117.05103657528878, 32.540568014888805], [-117.05552248728166, 32.54018116477651], [-117.05732354041132, 32.54003144716685], [-117.06263269343938, 32.53959208220537], [-117.06262665308354, 32.53998330311378], [-117.06253939994865, 32.54354864106436], [-117.06252495568202, 32.54444748533859], [-117.06252821963142, 32.546918336561625], [-117.06252787716794, 32.547155855958415], [-117.0625277816672, 32.54722341943811], [-117.06245532622414, 32.55169290798893], [-117.06243208253598, 32.551811932684984], [-117.06242036056022, 32.55194874639283], [-117.06241316030463, 32.55451708211071], [-117.06241426166068, 32.554636789946436], [-117.06242037199465, 32.556711844575986], [-117.0624241902312, 32.557126838409005], [-117.06237418047517, 32.55768785639208], [-117.06237463560647, 32.55773732585874], [-117.06293022120117, 32.55780511878345], [-117.06325052830995, 32.55805036573], [-117.06366623993678, 32.55843515338636], [-117.06444552199041, 32.559180333290385], [-117.06555375403798, 32.56004975949267], [-117.06548482782375, 32.56014160273773], [-117.066427310362, 32.56080804497977], [-117.06676521711148, 32.56102430730795], [-117.06917960088907, 32.56256802499196], [-117.07165372884184, 32.56407144451361], [-117.07313570476258, 32.56497953607457], [-117.07337117483323, 32.5651703548363], [-117.07360999071881, 32.565372147422394], [-117.07406191830084, 32.5658033770256], [-117.07450954419421, 32.56629552902683], [-117.07453742548725, 32.56632618570159], [-117.07460427322337, 32.56640359132233], [-117.07471923003797, 32.56653669958691], [-117.07472879820546, 32.56654779705397], [-117.07477695316446, 32.566603551624794], [-117.07481412775667, 32.56664817145378], [-117.07501058741073, 32.566883968915384], [-117.07505760999749, 32.56694042083491], [-117.07508037302063, 32.56696932517874], [-117.07549141076792, 32.56749125676561], [-117.07550761768931, 32.56751183313218], [-117.07555101301575, 32.56756976313247], [-117.07564664188001, 32.56769740700394], [-117.07565532573693, 32.567709016050856], [-117.0757163284967, 32.56779043732734], [-117.07576683374485, 32.56786066572545], [-117.07592679516851, 32.56808311534171], [-117.07643920083667, 32.5687310631075], [-117.07634232180736, 32.568783934355636], [-117.07620670125893, 32.568859053296556], [-117.07603876912125, 32.568949849035285], [-117.07601131329629, 32.56896411916264], [-117.07578348167357, 32.5690707765455], [-117.07563136873542, 32.56911783358016], [-117.07553416114852, 32.56913566332731], [-117.07551957840103, 32.56913816601381], [-117.07543689570872, 32.56914730931531], [-117.07216166718807, 32.569125246603505], [-117.07153845932469, 32.56912390935574], [-117.07109540827882, 32.569124116178685], [-117.0701589992537, 32.56912486014307], [-117.06865942615026, 32.56912384566176], [-117.0667864809217, 32.569111547893], [-117.06632879927677, 32.569109086143285], [-117.06510188300217, 32.56910896884421]]]]}, "properties": {"id": 92173, "call_count": 73, "bin_label": "51-100", "week": 9}}]}