{"type": "FeatureCollection", "features": [{"type": "Feature", "geometry": {"type": "MultiPolygon", "coordinates": [[[[-117.17864856105622, 32.73957566597356], [-117.1764172730006, 32.737069301294845], [-117.17472251149223, 32.73516629648989], [-117.17341813029623, 32.733736533661364], [-117.17289672201507, 32.73316530822423], [-117.17222205740133, 32.73239802032876], [-117.1713165481042, 32.73132187069866], [-117.17081676934828, 32.73079513856831], [-117.17053400810127, 32.730497660607604], [-117.17044000091836, 32.73052584727961], [-117.17029414143975, 32.730570911844175], [-117.17044578171257, 32.730923652039316], [-117.1707140558617, 32.731546250540745], [-117.17029916873777, 32.73167509120255], [-117.1698713171377, 32.73180814991402], [-117.16904782495016, 32.73204516344735], [-117.16817264648179, 32.7323155383807], [-117.16811094495691, 32.732323556047305], [-117.16804592740839, 32.73232541419853], [-117.16751576748803, 32.73231493166669], [-117.16751642558388, 32.732378139910324], [-117.16668730055142, 32.73238705261701], [-117.16575408920124, 32.73239398397703], [-117.16575193241704, 32.73187349969389], [-117.16575186458958, 32.731866972470996], [-117.16574979707734, 32.73135507664498], [-117.16484914394944, 32.73136450804904], [-117.16393867894654, 32.73136850854065], [-117.16302821386104, 32.731372502312475], [-117.16211777713853, 32.73137923766964], [-117.16120080873915, 32.73138326603953], [-117.16029034337754, 32.731387239604025], [-117.15939941566148, 32.731393810928864], [-117.15802722833874, 32.73140117083576], [-117.15465202150412, 32.73141772430033], [-117.1545414683468, 32.73141853501685], [-117.15480081154713, 32.73229031687172], [-117.15487367325706, 32.732419306138375], [-117.15526122140486, 32.73310874466615], [-117.15536080311364, 32.733305906857254], [-117.15545682653526, 32.73347320499919], [-117.1555197617228, 32.73358474498506], [-117.15574061665288, 32.7341912351014], [-117.15589212451513, 32.73485251178211], [-117.15590320486919, 32.73529769248031], [-117.15590376465703, 32.73598481420732], [-117.15587094381846, 32.736746390957045], [-117.15593033828044, 32.73714620996156], [-117.15597826251414, 32.737695560908264], [-117.1560535582745, 32.738376639516794], [-117.15627982381787, 32.73950736552335], [-117.15638108201112, 32.74018275622808], [-117.15643905904031, 32.74107662824211], [-117.15634802296572, 32.74107901490917], [-117.15612995712326, 32.74106240786371], [-117.15450388107813, 32.7410630028916], [-117.15416229910747, 32.74105279492343], [-117.15344847467568, 32.74105527867698], [-117.15344754609715, 32.741123308452224], [-117.15336949997148, 32.74112387997114], [-117.15118084368912, 32.74112889297711], [-117.15012724871713, 32.74113933326701], [-117.14921673815152, 32.741148721719064], [-117.14824771751383, 32.741161277988425], [-117.14752907336153, 32.7411692568542], [-117.14678763437703, 32.74117464872172], [-117.14613727717843, 32.74118212307078], [-117.14491457031687, 32.74119271643712], [-117.1443259820089, 32.741198015330326], [-117.14369833217373, 32.74119981518355], [-117.14307718616809, 32.74120156476188], [-117.14273894044601, 32.74119954655489], [-117.14225108519682, 32.7411965481614], [-117.14225272303979, 32.74103712264619], [-117.1411533232789, 32.74102033520512], [-117.14007671508995, 32.74100611655008], [-117.13898384767172, 32.74099200841468], [-117.13791385482293, 32.74098872001136], [-117.1373382094139, 32.7409873647076], [-117.13679508323534, 32.740985772968386], [-117.13626816137082, 32.740978562660224], [-117.13574123964781, 32.74097135559816], [-117.13518830261626, 32.740964330204285], [-117.1346516252768, 32.740957185738885], [-117.13412145511761, 32.74094999230595], [-117.13375394692059, 32.740948846307035], [-117.1336777024882, 32.74096691421123], [-117.13363410468351, 32.74099745734766], [-117.13362958421786, 32.73924944039588], [-117.13362443005198, 32.73743820958025], [-117.13361930368359, 32.73562972989173], [-117.1336166576355, 32.73406859283815], [-117.13362112170638, 32.73386517118074], [-117.13362875129062, 32.73365313775785], [-117.13367945762282, 32.732872541489854], [-117.13375319579077, 32.73179460040496], [-117.13389427388478, 32.72964974977961], [-117.13381995441006, 32.728399710727764], [-117.13384406233683, 32.727561242779515], [-117.13385874737531, 32.727080148506865], [-117.13387299124346, 32.72655508125721], [-117.13728863729993, 32.72653674275187], [-117.137631557334, 32.72620136230125], [-117.13778900171427, 32.72585288629946], [-117.13789075758189, 32.72562505826352], [-117.1380052483133, 32.72537034049111], [-117.13803069483897, 32.725314156408196], [-117.13817236993985, 32.72453049821655], [-117.13839032769503, 32.72325052803492], [-117.138304909795, 32.72138902803907], [-117.13824114351816, 32.71957822234306], [-117.1382212457018, 32.71953988375974], [-117.13819771231279, 32.71946309497272], [-117.13965755130197, 32.719460819122915], [-117.14030777653579, 32.719456127245316], [-117.14079057567125, 32.71945332838602], [-117.14148144680655, 32.7194490238832], [-117.14258733841612, 32.72061498308996], [-117.14260864499707, 32.720632009834986], [-117.14313960581026, 32.7210497161941], [-117.14384100327347, 32.72160120862697], [-117.14465619982992, 32.72087037855912], [-117.14564682626063, 32.720126588062946], [-117.14611583655478, 32.719886809429816], [-117.14627586644133, 32.71979666358623], [-117.14636161628931, 32.7197561870202], [-117.14652189403445, 32.71969077565344], [-117.14701596459979, 32.719517462804085], [-117.14715693050681, 32.719471430634634], [-117.14733342777951, 32.71940246458552], [-117.14748948164018, 32.71940132913585], [-117.14777558037423, 32.719399246965324], [-117.14791212749256, 32.719398252968155], [-117.14790150617982, 32.71931312643608], [-117.14788118753614, 32.71923356752165], [-117.14783718726417, 32.71906348011919], [-117.14773287968832, 32.718399099625636], [-117.14769816480425, 32.7178633925896], [-117.14769278347632, 32.71733503046074], [-117.14768744419912, 32.71681079080032], [-117.14768194753906, 32.71627109191747], [-117.14767680782045, 32.71576643396201], [-117.14766235770631, 32.71466713469072], [-117.14766626075121, 32.714092667473], [-117.14765233763481, 32.713683240671294], [-117.1476463275945, 32.712773527287546], [-117.14763695265773, 32.71153401711821], [-117.1476357340478, 32.710456609760755], [-117.14762846174852, 32.70942322266977], [-117.14760612786897, 32.708347686887194], [-117.14756388385243, 32.70627389963757], [-117.14772966638256, 32.706272692906396], [-117.14852282195405, 32.70626691644217], [-117.14942983383905, 32.70626855005434], [-117.15034993251695, 32.706278326984005], [-117.15188189784766, 32.70628384365802], [-117.15279437315718, 32.70627895356833], [-117.15279342246757, 32.706162319193886], [-117.15280213627288, 32.70574505333626], [-117.15280158741167, 32.70569146137947], [-117.15279369262994, 32.705238014776384], [-117.15281740010597, 32.705172220503854], [-117.15282048882766, 32.70515639120161], [-117.15283133465576, 32.705104436392396], [-117.15283428618147, 32.70507521184927], [-117.15284010830236, 32.705008861384776], [-117.15283994645317, 32.70499305862868], [-117.15283425077317, 32.70491304993108], [-117.15281392044176, 32.70483246124711], [-117.15280888976012, 32.70481738126369], [-117.15278385951582, 32.704754005179815], [-117.15277721762668, 32.70474031124622], [-117.15274243921228, 32.704677350081745], [-117.15273583955185, 32.70466777860409], [-117.15268308805179, 32.70459567276641], [-117.15265018832244, 32.70455743442776], [-117.15084642760708, 32.70332829730807], [-117.15092682010355, 32.703242506161295], [-117.15111182900569, 32.70305562988712], [-117.15111862086474, 32.70292502598754], [-117.15112136569616, 32.702875532733415], [-117.151123970057, 32.70281229795117], [-117.15112786251638, 32.702716068876825], [-117.15113309582567, 32.70259200682852], [-117.15113689696055, 32.70248684576142], [-117.15112940218445, 32.702389674706374], [-117.15112199518825, 32.702301089357775], [-117.1511076371212, 32.70200950856495], [-117.151099383894, 32.70183813051169], [-117.15109507296512, 32.701734408478444], [-117.15109077954777, 32.701632398639724], [-117.15108655639823, 32.701537262313316], [-117.15108442551374, 32.70148780469011], [-117.15108047276041, 32.70141912080437], [-117.15107627070084, 32.70132604570733], [-117.15107426623878, 32.701288955459], [-117.15107027838818, 32.701216836191506], [-117.15106594993887, 32.701111393720026], [-117.15105992253989, 32.7009987488226], [-117.15105979964214, 32.700986724986166], [-117.15105565731787, 32.700899490038815], [-117.15107677757602, 32.70073957852347], [-117.15109788722309, 32.70057863639077], [-117.15109686889043, 32.70047901031913], [-117.15109580139936, 32.70037457471336], [-117.15109463495831, 32.70010144723984], [-117.15109565270708, 32.70004200600803], [-117.15109509087291, 32.69998703990044], [-117.1510939952983, 32.69987985599091], [-117.15109449683334, 32.69976991190025], [-117.15109342938176, 32.69966547904507], [-117.15109224951065, 32.699550047472265], [-117.15109208447335, 32.69953390117841], [-117.15109098128852, 32.699266960147426], [-117.15109055991871, 32.69922573556772], [-117.15108946435905, 32.699118551660746], [-117.15108834071088, 32.69900861944883], [-117.15108884224804, 32.69889867536126], [-117.15108771863153, 32.69878874589841], [-117.1510874657838, 32.69876400840264], [-117.15108670732573, 32.698689804160395], [-117.15108547132269, 32.69856887872896], [-117.15108443195912, 32.698467191434695], [-117.15108331534826, 32.69835794630134], [-117.15108381688796, 32.698248002216104], [-117.1510833042314, 32.69819784564575], [-117.15114368413612, 32.69806272738789], [-117.15200025896459, 32.69727313899403], [-117.15190088568097, 32.69725050353438], [-117.15189111719663, 32.69724885716396], [-117.15182112294336, 32.69723803148758], [-117.1517950891517, 32.69723547337499], [-117.15170727473689, 32.69723061854355], [-117.15162596796497, 32.69722640319348], [-117.15166087804666, 32.69714369260927], [-117.15174379583861, 32.697146521899164], [-117.15183698973007, 32.69704174050105], [-117.15188835132967, 32.69697849266534], [-117.15253865751467, 32.69636287800153], [-117.15346777400974, 32.695518121598894], [-117.15905980435168, 32.6904328150726], [-117.1620726074397, 32.69229638830134], [-117.16399017712119, 32.692282188828464], [-117.16394594925504, 32.69256217785843], [-117.16393545582646, 32.692804124777595], [-117.16393870365911, 32.693117431182316], [-117.16396610089119, 32.69325190524172], [-117.16401656273091, 32.69341644196771], [-117.16406993299518, 32.693547974957866], [-117.1641894752117, 32.69379170636885], [-117.16429564684395, 32.693999806144014], [-117.16442799151781, 32.694224202813054], [-117.16454419991557, 32.69445971308391], [-117.16469248003934, 32.694653757641795], [-117.16481493672718, 32.69486448469904], [-117.16501744977323, 32.695272510550154], [-117.16520778785069, 32.695760333346996], [-117.16527399436823, 32.69587527949376], [-117.16530068441295, 32.69594104570081], [-117.16530473034878, 32.69601797404742], [-117.16537084832947, 32.69612467526198], [-117.16547696848204, 32.696327277432616], [-117.16558328891796, 32.696549117625494], [-117.16583513473537, 32.69701174616967], [-117.16596044471954, 32.69718397176461], [-117.16605253822443, 32.69728773116037], [-117.16613131331887, 32.69736135578846], [-117.16617385613323, 32.697388524841855], [-117.16621705265582, 32.69747890484341], [-117.16636440208049, 32.697582253429964], [-117.16650573693161, 32.69773237128573], [-117.16657536513557, 32.697863782416746], [-117.16669046958282, 32.69799210967707], [-117.16683109107633, 32.69807351687291], [-117.16710178694129, 32.69815979989837], [-117.1671213532708, 32.698165838530095], [-117.16697294272595, 32.69842942536256], [-117.16696815654218, 32.69843805006113], [-117.1669942736391, 32.698448849899336], [-117.1669990491008, 32.698439194586655], [-117.16715389949458, 32.698169719230954], [-117.16719946489891, 32.69817521815697], [-117.16723844001649, 32.69817183891447], [-117.16726766474956, 32.698169216571166], [-117.16733552139375, 32.69813023258155], [-117.16740283458823, 32.698039030826884], [-117.16740924944703, 32.69803073755811], [-117.16741247117588, 32.698027965074296], [-117.16743819104848, 32.69800028857382], [-117.16746110097215, 32.69801557851004], [-117.16762648691225, 32.69813390823679], [-117.16759010570073, 32.698230033405686], [-117.16758751328584, 32.698293268525674], [-117.16771812760874, 32.69835001530668], [-117.16781310281226, 32.698418024030914], [-117.16807102466993, 32.698526041826014], [-117.16818125021626, 32.698497735971934], [-117.168226908915, 32.69851216924596], [-117.1683084431096, 32.69853801652271], [-117.16829284980345, 32.698601348481525], [-117.16807086078727, 32.698978517237876], [-117.16805331259206, 32.69900991223929], [-117.16807942671235, 32.69902070912377], [-117.16809220280815, 32.69899897219811], [-117.16831896711103, 32.69861214803921], [-117.1683058869856, 32.69860468703508], [-117.16836127566633, 32.6986173299771], [-117.168407041494, 32.69864172575241], [-117.16843318745927, 32.69865527358721], [-117.16850575464657, 32.69875642810867], [-117.16858721397774, 32.69877506091049], [-117.16869122535878, 32.698774286039345], [-117.16882169788511, 32.69881729014618], [-117.16898199674593, 32.698915042128114], [-117.16943928296213, 32.699126017445856], [-117.16956357097284, 32.699199300551605], [-117.16970391035775, 32.6992532242122], [-117.16985222888619, 32.699293002054006], [-117.17000380509455, 32.699333442542084], [-117.17032308429953, 32.69940217784852], [-117.17067837258386, 32.699494692988424], [-117.17086424753694, 32.699551367424604], [-117.17096097723608, 32.6996313826579], [-117.17103011110196, 32.69971469601778], [-117.17128325491491, 32.69983133745163], [-117.1715591198062, 32.69994471099169], [-117.17157383637868, 32.69995319011775], [-117.17176674495143, 32.70006031461044], [-117.17184024900773, 32.700095152272915], [-117.17213590179843, 32.70023552094434], [-117.17259918552404, 32.700396966528814], [-117.173185555205, 32.70051626121678], [-117.17393138441528, 32.70065222381441], [-117.17404757745297, 32.700727968052135], [-117.17406230879949, 32.700737821031545], [-117.17424811976502, 32.700787619594564], [-117.17444371105066, 32.700840093075], [-117.17461322344631, 32.700885546938], [-117.17462299961136, 32.7008875350217], [-117.17463278043839, 32.70089089732774], [-117.17486586715044, 32.70095373948515], [-117.17506960689228, 32.701008212250706], [-117.1752684604115, 32.701061690651585], [-117.17547383308465, 32.7011168376297], [-117.17566616817373, 32.70116864649158], [-117.17587153773675, 32.70122344927008], [-117.17609647158254, 32.701283945377334], [-117.17620893681651, 32.701314021508445], [-117.1763020221688, 32.701355924312345], [-117.17642246206019, 32.70137151063345], [-117.17652677972752, 32.70139958629945], [-117.17676475239756, 32.701463418871406], [-117.17698316849707, 32.701522244532164], [-117.17723717730956, 32.70156534177184], [-117.17745859143686, 32.7016000945289], [-117.17747977723937, 32.70160543221919], [-117.17770622632118, 32.70165526350675], [-117.17786097782665, 32.70168810933887], [-117.1778707722622, 32.70169181760052], [-117.17805685501789, 32.70176703219495], [-117.1785690380728, 32.70194011223858], [-117.17883660418576, 32.702035325938], [-117.17889044332294, 32.70205450357962], [-117.17929645273858, 32.70217718922225], [-117.17943349800699, 32.70222597324955], [-117.17957872759206, 32.702280192465196], [-117.17991636282854, 32.70239239741739], [-117.1800924544968, 32.70244466547383], [-117.18049148738076, 32.70267630984293], [-117.18051762877141, 32.70268882448052], [-117.18052105695382, 32.702705633282775], [-117.18064264187902, 32.70282943249655], [-117.18064756837711, 32.70283420247435], [-117.18083157345004, 32.70302005644203], [-117.18083163874438, 32.70302624011424], [-117.18083343449, 32.70304237410134], [-117.18084610629846, 32.70316493105635], [-117.18093652575426, 32.70326182087609], [-117.18095133448085, 32.70327888731747], [-117.18095462853462, 32.7032829852263], [-117.18097272769566, 32.70330380603651], [-117.18084885222231, 32.70357890582822], [-117.18085571966671, 32.70361355402727], [-117.1810254801653, 32.703681672544775], [-117.18172339988232, 32.70389456496557], [-117.18233163858504, 32.70408030277839], [-117.18374036162366, 32.70449325956274], [-117.18383983130593, 32.70452342718773], [-117.18495359684616, 32.70486370633309], [-117.18619619972263, 32.705243538119426], [-117.18673596830489, 32.70540847311826], [-117.19092209494438, 32.706687304653855], [-117.19085717549437, 32.70700113130241], [-117.19081035165117, 32.707182893630836], [-117.19076311692547, 32.707326174291204], [-117.19054674737723, 32.70791841302843], [-117.19045867695256, 32.70834785388725], [-117.19045713959524, 32.70835611392123], [-117.19032779662366, 32.70872608635102], [-117.19032148983261, 32.708744686953075], [-117.19023239105265, 32.70907759370335], [-117.19033429192496, 32.70948703620189], [-117.19031467040396, 32.7097812747672], [-117.19031472903914, 32.70978677136133], [-117.1903085426898, 32.7098163651268], [-117.1902030992942, 32.7102936938103], [-117.19020647465474, 32.710305349289946], [-117.19010044389665, 32.710727711949], [-117.1900447104059, 32.71098890268101], [-117.19003848683197, 32.71101471750047], [-117.18993823845457, 32.711370040750005], [-117.18988474654395, 32.71138419103122], [-117.18980835239763, 32.71138477321384], [-117.1895649834134, 32.712343112723694], [-117.18968497620148, 32.712467599766185], [-117.18987028322357, 32.712619417733706], [-117.18996541949534, 32.71269977403867], [-117.19028218936415, 32.712831693285885], [-117.19030343361428, 32.71284218183228], [-117.19212474081608, 32.71366555039273], [-117.1925070281062, 32.71384334477199], [-117.19280263498031, 32.71397198368682], [-117.19329095840618, 32.71418435223498], [-117.19341344875288, 32.71423769861447], [-117.19366816426978, 32.71434259870032], [-117.19370241623041, 32.71435298713822], [-117.19381821803213, 32.71438920603753], [-117.19396985323714, 32.714431675557904], [-117.19404320146845, 32.71445001296887], [-117.19413284849442, 32.7144723456002], [-117.19442253439348, 32.714503109900896], [-117.19448439406261, 32.71451122531919], [-117.19460154898917, 32.714521665731105], [-117.19523612852579, 32.71457727130176], [-117.1955044961551, 32.71459067462338], [-117.19564437465918, 32.71459784774939], [-117.1960121023172, 32.714629727739755], [-117.19604952122819, 32.71463253280034], [-117.19669353058106, 32.71465782480362], [-117.1969113726482, 32.71465890097525], [-117.19742493149646, 32.714646711346305], [-117.19792882607553, 32.71464283942652], [-117.2000290762771, 32.714640421569584], [-117.20104718130673, 32.714684796788596], [-117.20146341939002, 32.71469257768998], [-117.20279946381807, 32.714674023212226], [-117.2034200648351, 32.714638990669506], [-117.20418751924419, 32.714655043624965], [-117.20445019320516, 32.71459254355862], [-117.20468412837961, 32.71517891441395], [-117.20417241205622, 32.715361531256804], [-117.20425866269119, 32.715520278354376], [-117.2054509653826, 32.71513724805611], [-117.20538406968657, 32.714964609226584], [-117.20490764007936, 32.71510297664749], [-117.2047031107631, 32.714530118454505], [-117.20503953952975, 32.7143735963385], [-117.20595573473639, 32.714014687021134], [-117.20670266775814, 32.71393743350501], [-117.20696605066128, 32.7139408871499], [-117.20740345671793, 32.71380281465152], [-117.20819428914447, 32.71357679092173], [-117.2089109387029, 32.71340630940646], [-117.20928407571313, 32.713337440271594], [-117.20944389723107, 32.71398210328165], [-117.21691505727044, 32.72168284883877], [-117.21671834143251, 32.72242374205934], [-117.21564632491872, 32.726370782596774], [-117.21514378327807, 32.728166541568704], [-117.21444950104552, 32.72833032496294], [-117.21374849689418, 32.728475550791565], [-117.21334988478753, 32.728534033623625], [-117.21317463385724, 32.728561444479666], [-117.2128856458993, 32.728599431537546], [-117.21254132309879, 32.72863235266773], [-117.21244874697234, 32.728641320612574], [-117.21210933851863, 32.72867763784899], [-117.21189172783765, 32.728700979623035], [-117.21160915555127, 32.72873101163771], [-117.21106187839456, 32.728789560248565], [-117.20893761226745, 32.72900673512624], [-117.20607918962622, 32.72929278194936], [-117.20548133614281, 32.729335893722336], [-117.20488333318235, 32.729365261122915], [-117.20401311386699, 32.73518787440299], [-117.20366791063977, 32.73754603002471], [-117.20362828459449, 32.737790955135466], [-117.19911242410001, 32.73669888599004], [-117.1965431693658, 32.73607822025412], [-117.19532691524334, 32.73577421480455], [-117.19301527413008, 32.73521471764567], [-117.19129711077663, 32.73480456754367], [-117.19116903961839, 32.73499244425852], [-117.19108590460296, 32.73512500758703], [-117.19101216899709, 32.73522451688786], [-117.1909414566606, 32.735302014903304], [-117.19088989901705, 32.73534638451292], [-117.1906769884891, 32.735507422535335], [-117.19059973962953, 32.7355822216725], [-117.19056124715301, 32.7356319885675], [-117.19042060630282, 32.735861188160165], [-117.19022703700112, 32.73615881693468], [-117.19018423825176, 32.73626221271663], [-117.19017180676543, 32.73631624721265], [-117.19016589339743, 32.73637160629274], [-117.19011269563718, 32.73656715954974], [-117.19007452493535, 32.73664715483395], [-117.18999457983072, 32.73677419605391], [-117.18984394590862, 32.73698148293521], [-117.18982173725782, 32.73703387405524], [-117.18980975934758, 32.73713016358857], [-117.18977747700102, 32.73730494068807], [-117.18974889616251, 32.73736940512265], [-117.18971688765761, 32.737417404526624], [-117.18965577797327, 32.73748108602661], [-117.18958313312501, 32.73753042561039], [-117.18939933450851, 32.73767749703471], [-117.18932553627023, 32.73777150873434], [-117.18925218378503, 32.73790674482877], [-117.18872412832178, 32.73870783831003], [-117.1886567768248, 32.738796300751225], [-117.18861658965831, 32.73883955217804], [-117.18856183589732, 32.738889785720225], [-117.1885005377564, 32.73893594624093], [-117.1884230096534, 32.738984978712885], [-117.18835346472126, 32.73902020780297], [-117.1878967221006, 32.73918962308871], [-117.18790058823538, 32.739247312658165], [-117.18775896122591, 32.739232241743345], [-117.18751315104576, 32.73920628122787], [-117.18738727539794, 32.73914333461684], [-117.18721092337704, 32.73907390005459], [-117.18704129452132, 32.73902503083779], [-117.18689952188286, 32.73899621468905], [-117.18675459979009, 32.73897704486755], [-117.18655937658673, 32.73896787658586], [-117.18639683603205, 32.73897392035861], [-117.18625229366387, 32.73899047509817], [-117.18604622553673, 32.739031895141125], [-117.18592302795456, 32.739067873500986], [-117.18579506925965, 32.73911488193878], [-117.18505814111589, 32.73954374202146], [-117.1848689969799, 32.73980113154712], [-117.18479687598239, 32.739900281258905], [-117.18475040172646, 32.73996453652345], [-117.18473594687515, 32.73998148073992], [-117.18464755891848, 32.74008006648376], [-117.18446386332762, 32.74023812376408], [-117.18441875229749, 32.74027763188385], [-117.18441392183274, 32.74028213481806], [-117.18438019963664, 32.74032224379141], [-117.18436735966937, 32.74033814503731], [-117.18427456662579, 32.740481427341905], [-117.18423937132063, 32.74053597716821], [-117.1841273687528, 32.74070792073513], [-117.18400583905287, 32.740901237365925], [-117.18384749513014, 32.74115049010073], [-117.1838266999123, 32.74118294263344], [-117.18374674165604, 32.74130997706759], [-117.18350358457008, 32.741688367359956], [-117.18349718260562, 32.74169803562563], [-117.18344428628195, 32.741770240977786], [-117.18333494668695, 32.74188684967055], [-117.18323016817942, 32.741973533595825], [-117.18274874122169, 32.7422712661528], [-117.18253222717883, 32.74240208341582], [-117.18244822876872, 32.74245494021198], [-117.18106199109853, 32.74176453703908], [-117.18002346875478, 32.74104676098925], [-117.1795863545246, 32.74061304073836], [-117.17864856105622, 32.73957566597356]], [[-117.14677959168523, 32.72408720759344], [-117.14614230986776, 32.72408909079455], [-117.1445085616347, 32.72410369821341], [-117.14448297228715, 32.724946302424556], [-117.14468871374474, 32.73144022967389], [-117.1461717704497, 32.73146313349752], [-117.1461784146096, 32.73131707053428], [-117.14631558932106, 32.72961783711922], [-117.14634185811647, 32.72932286834988], [-117.14636026288782, 32.72921416839427], [-117.14640237931076, 32.72903898827804], [-117.14644018446276, 32.72891949684212], [-117.14649563145903, 32.728776171263625], [-117.146587987783, 32.72858516555827], [-117.14663750812814, 32.72849857104797], [-117.14673997126306, 32.72834219172045], [-117.146791291593, 32.728272418696115], [-117.14691336099499, 32.72812586003258], [-117.14700342237053, 32.72802900722556], [-117.14708874976812, 32.7279462749037], [-117.14723702879235, 32.72781876487976], [-117.14735803404217, 32.72772718374655], [-117.14751144484214, 32.72762471622606], [-117.14741600608804, 32.72751272162673], [-117.14740948225628, 32.72751070770599], [-117.14741366228876, 32.72728255080666], [-117.14690157171465, 32.72712720527807], [-117.14679750936486, 32.72696648683171], [-117.14687635066491, 32.726406247895326], [-117.14686712096277, 32.72629809235631], [-117.14678793119596, 32.72586543396884], [-117.14679596518491, 32.725856096582696], [-117.14680382441186, 32.72582958501721], [-117.14677959168523, 32.72408720759344]]]]}, "properties": {"id": 92101, "call_count": 62, "bin_label": "51-100", "week": 15}}, {"type": "Feature", "geometry": {"type": "MultiPolygon", "coordinates": [[[[-117.17864856105622, 32.73957566597356], [-117.1764172730006, 32.737069301294845], [-117.17472251149223, 32.73516629648989], [-117.17341813029623, 32.733736533661364], [-117.17289672201507, 32.73316530822423], [-117.17222205740133, 32.73239802032876], [-117.1713165481042, 32.73132187069866], [-117.17081676934828, 32.73079513856831], [-117.17053400810127, 32.730497660607604], [-117.17044000091836, 32.73052584727961], [-117.17029414143975, 32.730570911844175], [-117.17044578171257, 32.730923652039316], [-117.1707140558617, 32.731546250540745], [-117.17029916873777, 32.73167509120255], [-117.1698713171377, 32.73180814991402], [-117.16904782495016, 32.73204516344735], [-117.16817264648179, 32.7323155383807], [-117.16811094495691, 32.732323556047305], [-117.16804592740839, 32.73232541419853], [-117.16751576748803, 32.73231493166669], [-117.16751642558388, 32.732378139910324], [-117.16668730055142, 32.73238705261701], [-117.16575408920124, 32.73239398397703], [-117.16575193241704, 32.73187349969389], [-117.16575186458958, 32.731866972470996], [-117.16574979707734, 32.73135507664498], [-117.16484914394944, 32.73136450804904], [-117.16393867894654, 32.73136850854065], [-117.16302821386104, 32.731372502312475], [-117.16211777713853, 32.73137923766964], [-117.16120080873915, 32.73138326603953], [-117.16029034337754, 32.731387239604025], [-117.15939941566148, 32.731393810928864], [-117.15802722833874, 32.73140117083576], [-117.15465202150412, 32.73141772430033], [-117.1545414683468, 32.73141853501685], [-117.15480081154713, 32.73229031687172], [-117.15487367325706, 32.732419306138375], [-117.15526122140486, 32.73310874466615], [-117.15536080311364, 32.733305906857254], [-117.15545682653526, 32.73347320499919], [-117.1555197617228, 32.73358474498506], [-117.15574061665288, 32.7341912351014], [-117.15589212451513, 32.73485251178211], [-117.15590320486919, 32.73529769248031], [-117.15590376465703, 32.73598481420732], [-117.15587094381846, 32.736746390957045], [-117.15593033828044, 32.73714620996156], [-117.15597826251414, 32.737695560908264], [-117.1560535582745, 32.738376639516794], [-117.15627982381787, 32.73950736552335], [-117.15638108201112, 32.74018275622808], [-117.15643905904031, 32.74107662824211], [-117.15634802296572, 32.74107901490917], [-117.15612995712326, 32.74106240786371], [-117.15450388107813, 32.7410630028916], [-117.15416229910747, 32.74105279492343], [-117.15344847467568, 32.74105527867698], [-117.15344754609715, 32.741123308452224], [-117.15336949997148, 32.74112387997114], [-117.15118084368912, 32.74112889297711], [-117.15012724871713, 32.74113933326701], [-117.14921673815152, 32.741148721719064], [-117.14824771751383, 32.741161277988425], [-117.14752907336153, 32.7411692568542], [-117.14678763437703, 32.74117464872172], [-117.14613727717843, 32.74118212307078], [-117.14491457031687, 32.74119271643712], [-117.1443259820089, 32.741198015330326], [-117.14369833217373, 32.74119981518355], [-117.14307718616809, 32.74120156476188], [-117.14273894044601, 32.74119954655489], [-117.14225108519682, 32.7411965481614], [-117.14225272303979, 32.74103712264619], [-117.1411533232789, 32.74102033520512], [-117.14007671508995, 32.74100611655008], [-117.13898384767172, 32.74099200841468], [-117.13791385482293, 32.74098872001136], [-117.1373382094139, 32.7409873647076], [-117.13679508323534, 32.740985772968386], [-117.13626816137082, 32.740978562660224], [-117.13574123964781, 32.74097135559816], [-117.13518830261626, 32.740964330204285], [-117.1346516252768, 32.740957185738885], [-117.13412145511761, 32.74094999230595], [-117.13375394692059, 32.740948846307035], [-117.1336777024882, 32.74096691421123], [-117.13363410468351, 32.74099745734766], [-117.13362958421786, 32.73924944039588], [-117.13362443005198, 32.73743820958025], [-117.13361930368359, 32.73562972989173], [-117.1336166576355, 32.73406859283815], [-117.13362112170638, 32.73386517118074], [-117.13362875129062, 32.73365313775785], [-117.13367945762282, 32.732872541489854], [-117.13375319579077, 32.73179460040496], [-117.13389427388478, 32.72964974977961], [-117.13381995441006, 32.728399710727764], [-117.13384406233683, 32.727561242779515], [-117.13385874737531, 32.727080148506865], [-117.13387299124346, 32.72655508125721], [-117.13728863729993, 32.72653674275187], [-117.137631557334, 32.72620136230125], [-117.13778900171427, 32.72585288629946], [-117.13789075758189, 32.72562505826352], [-117.1380052483133, 32.72537034049111], [-117.13803069483897, 32.725314156408196], [-117.13817236993985, 32.72453049821655], [-117.13839032769503, 32.72325052803492], [-117.138304909795, 32.72138902803907], [-117.13824114351816, 32.71957822234306], [-117.1382212457018, 32.71953988375974], [-117.13819771231279, 32.71946309497272], [-117.13965755130197, 32.719460819122915], [-117.14030777653579, 32.719456127245316], [-117.14079057567125, 32.71945332838602], [-117.14148144680655, 32.7194490238832], [-117.14258733841612, 32.72061498308996], [-117.14260864499707, 32.720632009834986], [-117.14313960581026, 32.7210497161941], [-117.14384100327347, 32.72160120862697], [-117.14465619982992, 32.72087037855912], [-117.14564682626063, 32.720126588062946], [-117.14611583655478, 32.719886809429816], [-117.14627586644133, 32.71979666358623], [-117.14636161628931, 32.7197561870202], [-117.14652189403445, 32.71969077565344], [-117.14701596459979, 32.719517462804085], [-117.14715693050681, 32.719471430634634], [-117.14733342777951, 32.71940246458552], [-117.14748948164018, 32.71940132913585], [-117.14777558037423, 32.719399246965324], [-117.14791212749256, 32.719398252968155], [-117.14790150617982, 32.71931312643608], [-117.14788118753614, 32.71923356752165], [-117.14783718726417, 32.71906348011919], [-117.14773287968832, 32.718399099625636], [-117.14769816480425, 32.7178633925896], [-117.14769278347632, 32.71733503046074], [-117.14768744419912, 32.71681079080032], [-117.14768194753906, 32.71627109191747], [-117.14767680782045, 32.71576643396201], [-117.14766235770631, 32.71466713469072], [-117.14766626075121, 32.714092667473], [-117.14765233763481, 32.713683240671294], [-117.1476463275945, 32.712773527287546], [-117.14763695265773, 32.71153401711821], [-117.1476357340478, 32.710456609760755], [-117.14762846174852, 32.70942322266977], [-117.14760612786897, 32.708347686887194], [-117.14756388385243, 32.70627389963757], [-117.14772966638256, 32.706272692906396], [-117.14852282195405, 32.70626691644217], [-117.14942983383905, 32.70626855005434], [-117.15034993251695, 32.706278326984005], [-117.15188189784766, 32.70628384365802], [-117.15279437315718, 32.70627895356833], [-117.15279342246757, 32.706162319193886], [-117.15280213627288, 32.70574505333626], [-117.15280158741167, 32.70569146137947], [-117.15279369262994, 32.705238014776384], [-117.15281740010597, 32.705172220503854], [-117.15282048882766, 32.70515639120161], [-117.15283133465576, 32.705104436392396], [-117.15283428618147, 32.70507521184927], [-117.15284010830236, 32.705008861384776], [-117.15283994645317, 32.70499305862868], [-117.15283425077317, 32.70491304993108], [-117.15281392044176, 32.70483246124711], [-117.15280888976012, 32.70481738126369], [-117.15278385951582, 32.704754005179815], [-117.15277721762668, 32.70474031124622], [-117.15274243921228, 32.704677350081745], [-117.15273583955185, 32.70466777860409], [-117.15268308805179, 32.70459567276641], [-117.15265018832244, 32.70455743442776], [-117.15084642760708, 32.70332829730807], [-117.15092682010355, 32.703242506161295], [-117.15111182900569, 32.70305562988712], [-117.15111862086474, 32.70292502598754], [-117.15112136569616, 32.702875532733415], [-117.151123970057, 32.70281229795117], [-117.15112786251638, 32.702716068876825], [-117.15113309582567, 32.70259200682852], [-117.15113689696055, 32.70248684576142], [-117.15112940218445, 32.702389674706374], [-117.15112199518825, 32.702301089357775], [-117.1511076371212, 32.70200950856495], [-117.151099383894, 32.70183813051169], [-117.15109507296512, 32.701734408478444], [-117.15109077954777, 32.701632398639724], [-117.15108655639823, 32.701537262313316], [-117.15108442551374, 32.70148780469011], [-117.15108047276041, 32.70141912080437], [-117.15107627070084, 32.70132604570733], [-117.15107426623878, 32.701288955459], [-117.15107027838818, 32.701216836191506], [-117.15106594993887, 32.701111393720026], [-117.15105992253989, 32.7009987488226], [-117.15105979964214, 32.700986724986166], [-117.15105565731787, 32.700899490038815], [-117.15107677757602, 32.70073957852347], [-117.15109788722309, 32.70057863639077], [-117.15109686889043, 32.70047901031913], [-117.15109580139936, 32.70037457471336], [-117.15109463495831, 32.70010144723984], [-117.15109565270708, 32.70004200600803], [-117.15109509087291, 32.69998703990044], [-117.1510939952983, 32.69987985599091], [-117.15109449683334, 32.69976991190025], [-117.15109342938176, 32.69966547904507], [-117.15109224951065, 32.699550047472265], [-117.15109208447335, 32.69953390117841], [-117.15109098128852, 32.699266960147426], [-117.15109055991871, 32.69922573556772], [-117.15108946435905, 32.699118551660746], [-117.15108834071088, 32.69900861944883], [-117.15108884224804, 32.69889867536126], [-117.15108771863153, 32.69878874589841], [-117.1510874657838, 32.69876400840264], [-117.15108670732573, 32.698689804160395], [-117.15108547132269, 32.69856887872896], [-117.15108443195912, 32.698467191434695], [-117.15108331534826, 32.69835794630134], [-117.15108381688796, 32.698248002216104], [-117.1510833042314, 32.69819784564575], [-117.15114368413612, 32.69806272738789], [-117.15200025896459, 32.69727313899403], [-117.15190088568097, 32.69725050353438], [-117.15189111719663, 32.69724885716396], [-117.15182112294336, 32.69723803148758], [-117.1517950891517, 32.69723547337499], [-117.15170727473689, 32.69723061854355], [-117.15162596796497, 32.69722640319348], [-117.15166087804666, 32.69714369260927], [-117.15174379583861, 32.697146521899164], [-117.15183698973007, 32.69704174050105], [-117.15188835132967, 32.69697849266534], [-117.15253865751467, 32.69636287800153], [-117.15346777400974, 32.695518121598894], [-117.15905980435168, 32.6904328150726], [-117.1620726074397, 32.69229638830134], [-117.16399017712119, 32.692282188828464], [-117.16394594925504, 32.69256217785843], [-117.16393545582646, 32.692804124777595], [-117.16393870365911, 32.693117431182316], [-117.16396610089119, 32.69325190524172], [-117.16401656273091, 32.69341644196771], [-117.16406993299518, 32.693547974957866], [-117.1641894752117, 32.69379170636885], [-117.16429564684395, 32.693999806144014], [-117.16442799151781, 32.694224202813054], [-117.16454419991557, 32.69445971308391], [-117.16469248003934, 32.694653757641795], [-117.16481493672718, 32.69486448469904], [-117.16501744977323, 32.695272510550154], [-117.16520778785069, 32.695760333346996], [-117.16527399436823, 32.69587527949376], [-117.16530068441295, 32.69594104570081], [-117.16530473034878, 32.69601797404742], [-117.16537084832947, 32.69612467526198], [-117.16547696848204, 32.696327277432616], [-117.16558328891796, 32.696549117625494], [-117.16583513473537, 32.69701174616967], [-117.16596044471954, 32.69718397176461], [-117.16605253822443, 32.69728773116037], [-117.16613131331887, 32.69736135578846], [-117.16617385613323, 32.697388524841855], [-117.16621705265582, 32.69747890484341], [-117.16636440208049, 32.697582253429964], [-117.16650573693161, 32.69773237128573], [-117.16657536513557, 32.697863782416746], [-117.16669046958282, 32.69799210967707], [-117.16683109107633, 32.69807351687291], [-117.16710178694129, 32.69815979989837], [-117.1671213532708, 32.698165838530095], [-117.16697294272595, 32.69842942536256], [-117.16696815654218, 32.69843805006113], [-117.1669942736391, 32.698448849899336], [-117.1669990491008, 32.698439194586655], [-117.16715389949458, 32.698169719230954], [-117.16719946489891, 32.69817521815697], [-117.16723844001649, 32.69817183891447], [-117.16726766474956, 32.698169216571166], [-117.16733552139375, 32.69813023258155], [-117.16740283458823, 32.698039030826884], [-117.16740924944703, 32.69803073755811], [-117.16741247117588, 32.698027965074296], [-117.16743819104848, 32.69800028857382], [-117.16746110097215, 32.69801557851004], [-117.16762648691225, 32.69813390823679], [-117.16759010570073, 32.698230033405686], [-117.16758751328584, 32.698293268525674], [-117.16771812760874, 32.69835001530668], [-117.16781310281226, 32.698418024030914], [-117.16807102466993, 32.698526041826014], [-117.16818125021626, 32.698497735971934], [-117.168226908915, 32.69851216924596], [-117.1683084431096, 32.69853801652271], [-117.16829284980345, 32.698601348481525], [-117.16807086078727, 32.698978517237876], [-117.16805331259206, 32.69900991223929], [-117.16807942671235, 32.69902070912377], [-117.16809220280815, 32.69899897219811], [-117.16831896711103, 32.69861214803921], [-117.1683058869856, 32.69860468703508], [-117.16836127566633, 32.6986173299771], [-117.168407041494, 32.69864172575241], [-117.16843318745927, 32.69865527358721], [-117.16850575464657, 32.69875642810867], [-117.16858721397774, 32.69877506091049], [-117.16869122535878, 32.698774286039345], [-117.16882169788511, 32.69881729014618], [-117.16898199674593, 32.698915042128114], [-117.16943928296213, 32.699126017445856], [-117.16956357097284, 32.699199300551605], [-117.16970391035775, 32.6992532242122], [-117.16985222888619, 32.699293002054006], [-117.17000380509455, 32.699333442542084], [-117.17032308429953, 32.69940217784852], [-117.17067837258386, 32.699494692988424], [-117.17086424753694, 32.699551367424604], [-117.17096097723608, 32.6996313826579], [-117.17103011110196, 32.69971469601778], [-117.17128325491491, 32.69983133745163], [-117.1715591198062, 32.69994471099169], [-117.17157383637868, 32.69995319011775], [-117.17176674495143, 32.70006031461044], [-117.17184024900773, 32.700095152272915], [-117.17213590179843, 32.70023552094434], [-117.17259918552404, 32.700396966528814], [-117.173185555205, 32.70051626121678], [-117.17393138441528, 32.70065222381441], [-117.17404757745297, 32.700727968052135], [-117.17406230879949, 32.700737821031545], [-117.17424811976502, 32.700787619594564], [-117.17444371105066, 32.700840093075], [-117.17461322344631, 32.700885546938], [-117.17462299961136, 32.7008875350217], [-117.17463278043839, 32.70089089732774], [-117.17486586715044, 32.70095373948515], [-117.17506960689228, 32.701008212250706], [-117.1752684604115, 32.701061690651585], [-117.17547383308465, 32.7011168376297], [-117.17566616817373, 32.70116864649158], [-117.17587153773675, 32.70122344927008], [-117.17609647158254, 32.701283945377334], [-117.17620893681651, 32.701314021508445], [-117.1763020221688, 32.701355924312345], [-117.17642246206019, 32.70137151063345], [-117.17652677972752, 32.70139958629945], [-117.17676475239756, 32.701463418871406], [-117.17698316849707, 32.701522244532164], [-117.17723717730956, 32.70156534177184], [-117.17745859143686, 32.7016000945289], [-117.17747977723937, 32.70160543221919], [-117.17770622632118, 32.70165526350675], [-117.17786097782665, 32.70168810933887], [-117.1778707722622, 32.70169181760052], [-117.17805685501789, 32.70176703219495], [-117.1785690380728, 32.70194011223858], [-117.17883660418576, 32.702035325938], [-117.17889044332294, 32.70205450357962], [-117.17929645273858, 32.70217718922225], [-117.17943349800699, 32.70222597324955], [-117.17957872759206, 32.702280192465196], [-117.17991636282854, 32.70239239741739], [-117.1800924544968, 32.70244466547383], [-117.18049148738076, 32.70267630984293], [-117.18051762877141, 32.70268882448052], [-117.18052105695382, 32.702705633282775], [-117.18064264187902, 32.70282943249655], [-117.18064756837711, 32.70283420247435], [-117.18083157345004, 32.70302005644203], [-117.18083163874438, 32.70302624011424], [-117.18083343449, 32.70304237410134], [-117.18084610629846, 32.70316493105635], [-117.18093652575426, 32.70326182087609], [-117.18095133448085, 32.70327888731747], [-117.18095462853462, 32.7032829852263], [-117.18097272769566, 32.70330380603651], [-117.18084885222231, 32.70357890582822], [-117.18085571966671, 32.70361355402727], [-117.1810254801653, 32.703681672544775], [-117.18172339988232, 32.70389456496557], [-117.18233163858504, 32.70408030277839], [-117.18374036162366, 32.70449325956274], [-117.18383983130593, 32.70452342718773], [-117.18495359684616, 32.70486370633309], [-117.18619619972263, 32.705243538119426], [-117.18673596830489, 32.70540847311826], [-117.19092209494438, 32.706687304653855], [-117.19085717549437, 32.70700113130241], [-117.19081035165117, 32.707182893630836], [-117.19076311692547, 32.707326174291204], [-117.19054674737723, 32.70791841302843], [-117.19045867695256, 32.70834785388725], [-117.19045713959524, 32.70835611392123], [-117.19032779662366, 32.70872608635102], [-117.19032148983261, 32.708744686953075], [-117.19023239105265, 32.70907759370335], [-117.19033429192496, 32.70948703620189], [-117.19031467040396, 32.7097812747672], [-117.19031472903914, 32.70978677136133], [-117.1903085426898, 32.7098163651268], [-117.1902030992942, 32.7102936938103], [-117.19020647465474, 32.710305349289946], [-117.19010044389665, 32.710727711949], [-117.1900447104059, 32.71098890268101], [-117.19003848683197, 32.71101471750047], [-117.18993823845457, 32.711370040750005], [-117.18988474654395, 32.71138419103122], [-117.18980835239763, 32.71138477321384], [-117.1895649834134, 32.712343112723694], [-117.18968497620148, 32.712467599766185], [-117.18987028322357, 32.712619417733706], [-117.18996541949534, 32.71269977403867], [-117.19028218936415, 32.712831693285885], [-117.19030343361428, 32.71284218183228], [-117.19212474081608, 32.71366555039273], [-117.1925070281062, 32.71384334477199], [-117.19280263498031, 32.71397198368682], [-117.19329095840618, 32.71418435223498], [-117.19341344875288, 32.71423769861447], [-117.19366816426978, 32.71434259870032], [-117.19370241623041, 32.71435298713822], [-117.19381821803213, 32.71438920603753], [-117.19396985323714, 32.714431675557904], [-117.19404320146845, 32.71445001296887], [-117.19413284849442, 32.7144723456002], [-117.19442253439348, 32.714503109900896], [-117.19448439406261, 32.71451122531919], [-117.19460154898917, 32.714521665731105], [-117.19523612852579, 32.71457727130176], [-117.1955044961551, 32.71459067462338], [-117.19564437465918, 32.71459784774939], [-117.1960121023172, 32.714629727739755], [-117.19604952122819, 32.71463253280034], [-117.19669353058106, 32.71465782480362], [-117.1969113726482, 32.71465890097525], [-117.19742493149646, 32.714646711346305], [-117.19792882607553, 32.71464283942652], [-117.2000290762771, 32.714640421569584], [-117.20104718130673, 32.714684796788596], [-117.20146341939002, 32.71469257768998], [-117.20279946381807, 32.714674023212226], [-117.2034200648351, 32.714638990669506], [-117.20418751924419, 32.714655043624965], [-117.20445019320516, 32.71459254355862], [-117.20468412837961, 32.71517891441395], [-117.20417241205622, 32.715361531256804], [-117.20425866269119, 32.715520278354376], [-117.2054509653826, 32.71513724805611], [-117.20538406968657, 32.714964609226584], [-117.20490764007936, 32.71510297664749], [-117.2047031107631, 32.714530118454505], [-117.20503953952975, 32.7143735963385], [-117.20595573473639, 32.714014687021134], [-117.20670266775814, 32.71393743350501], [-117.20696605066128, 32.7139408871499], [-117.20740345671793, 32.71380281465152], [-117.20819428914447, 32.71357679092173], [-117.2089109387029, 32.71340630940646], [-117.20928407571313, 32.713337440271594], [-117.20944389723107, 32.71398210328165], [-117.21691505727044, 32.72168284883877], [-117.21671834143251, 32.72242374205934], [-117.21564632491872, 32.726370782596774], [-117.21514378327807, 32.728166541568704], [-117.21444950104552, 32.72833032496294], [-117.21374849689418, 32.728475550791565], [-117.21334988478753, 32.728534033623625], [-117.21317463385724, 32.728561444479666], [-117.2128856458993, 32.728599431537546], [-117.21254132309879, 32.72863235266773], [-117.21244874697234, 32.728641320612574], [-117.21210933851863, 32.72867763784899], [-117.21189172783765, 32.728700979623035], [-117.21160915555127, 32.72873101163771], [-117.21106187839456, 32.728789560248565], [-117.20893761226745, 32.72900673512624], [-117.20607918962622, 32.72929278194936], [-117.20548133614281, 32.729335893722336], [-117.20488333318235, 32.729365261122915], [-117.20401311386699, 32.73518787440299], [-117.20366791063977, 32.73754603002471], [-117.20362828459449, 32.737790955135466], [-117.19911242410001, 32.73669888599004], [-117.1965431693658, 32.73607822025412], [-117.19532691524334, 32.73577421480455], [-117.19301527413008, 32.73521471764567], [-117.19129711077663, 32.73480456754367], [-117.19116903961839, 32.73499244425852], [-117.19108590460296, 32.73512500758703], [-117.19101216899709, 32.73522451688786], [-117.1909414566606, 32.735302014903304], [-117.19088989901705, 32.73534638451292], [-117.1906769884891, 32.735507422535335], [-117.19059973962953, 32.7355822216725], [-117.19056124715301, 32.7356319885675], [-117.19042060630282, 32.735861188160165], [-117.19022703700112, 32.73615881693468], [-117.19018423825176, 32.73626221271663], [-117.19017180676543, 32.73631624721265], [-117.19016589339743, 32.73637160629274], [-117.19011269563718, 32.73656715954974], [-117.19007452493535, 32.73664715483395], [-117.18999457983072, 32.73677419605391], [-117.18984394590862, 32.73698148293521], [-117.18982173725782, 32.73703387405524], [-117.18980975934758, 32.73713016358857], [-117.18977747700102, 32.73730494068807], [-117.18974889616251, 32.73736940512265], [-117.18971688765761, 32.737417404526624], [-117.18965577797327, 32.73748108602661], [-117.18958313312501, 32.73753042561039], [-117.18939933450851, 32.73767749703471], [-117.18932553627023, 32.73777150873434], [-117.18925218378503, 32.73790674482877], [-117.18872412832178, 32.73870783831003], [-117.1886567768248, 32.738796300751225], [-117.18861658965831, 32.73883955217804], [-117.18856183589732, 32.738889785720225], [-117.1885005377564, 32.73893594624093], [-117.1884230096534, 32.738984978712885], [-117.18835346472126, 32.73902020780297], [-117.1878967221006, 32.73918962308871], [-117.18790058823538, 32.739247312658165], [-117.18775896122591, 32.739232241743345], [-117.18751315104576, 32.73920628122787], [-117.18738727539794, 32.73914333461684], [-117.18721092337704, 32.73907390005459], [-117.18704129452132, 32.73902503083779], [-117.18689952188286, 32.73899621468905], [-117.18675459979009, 32.73897704486755], [-117.18655937658673, 32.73896787658586], [-117.18639683603205, 32.73897392035861], [-117.18625229366387, 32.73899047509817], [-117.18604622553673, 32.739031895141125], [-117.18592302795456, 32.739067873500986], [-117.18579506925965, 32.73911488193878], [-117.18505814111589, 32.73954374202146], [-117.1848689969799, 32.73980113154712], [-117.18479687598239, 32.739900281258905], [-117.18475040172646, 32.73996453652345], [-117.18473594687515, 32.73998148073992], [-117.18464755891848, 32.74008006648376], [-117.18446386332762, 32.74023812376408], [-117.18441875229749, 32.74027763188385], [-117.18441392183274, 32.74028213481806], [-117.18438019963664, 32.74032224379141], [-117.18436735966937, 32.74033814503731], [-117.18427456662579, 32.740481427341905], [-117.18423937132063, 32.74053597716821], [-117.1841273687528, 32.74070792073513], [-117.18400583905287, 32.740901237365925], [-117.18384749513014, 32.74115049010073], [-117.1838266999123, 32.74118294263344], [-117.18374674165604, 32.74130997706759], [-117.18350358457008, 32.741688367359956], [-117.18349718260562, 32.74169803562563], [-117.18344428628195, 32.741770240977786], [-117.18333494668695, 32.74188684967055], [-117.18323016817942, 32.741973533595825], [-117.18274874122169, 32.7422712661528], [-117.18253222717883, 32.74240208341582], [-117.18244822876872, 32.74245494021198], [-117.18106199109853, 32.74176453703908], [-117.18002346875478, 32.74104676098925], [-117.1795863545246, 32.74061304073836], [-117.17864856105622, 32.73957566597356]], [[-117.14677959168523, 32.72408720759344], [-117.14614230986776, 32.72408909079455], [-117.1445085616347, 32.72410369821341], [-117.14448297228715, 32.724946302424556], [-117.14468871374474, 32.73144022967389], [-117.1461717704497, 32.73146313349752], [-117.1461784146096, 32.73131707053428], [-117.14631558932106, 32.72961783711922], [-117.14634185811647, 32.72932286834988], [-117.14636026288782, 32.72921416839427], [-117.14640237931076, 32.72903898827804], [-117.14644018446276, 32.72891949684212], [-117.14649563145903, 32.728776171263625], [-117.146587987783, 32.72858516555827], [-117.14663750812814, 32.72849857104797], [-117.14673997126306, 32.72834219172045], [-117.146791291593, 32.728272418696115], [-117.14691336099499, 32.72812586003258], [-117.14700342237053, 32.72802900722556], [-117.14708874976812, 32.7279462749037], [-117.14723702879235, 32.72781876487976], [-117.14735803404217, 32.72772718374655], [-117.14751144484214, 32.72762471622606], [-117.14741600608804, 32.72751272162673], [-117.14740948225628, 32.72751070770599], [-117.14741366228876, 32.72728255080666], [-117.14690157171465, 32.72712720527807], [-117.14679750936486, 32.72696648683171], [-117.14687635066491, 32.726406247895326], [-117.14686712096277, 32.72629809235631], [-117.14678793119596, 32.72586543396884], [-117.14679596518491, 32.725856096582696], [-117.14680382441186, 32.72582958501721], [-117.14677959168523, 32.72408720759344]]]]}, "properties": {"id": 92101, "call_count": 56, "bin_label": "51-100", "week": 15}}, {"type": "Feature", "geometry": {"type": "MultiPolygon", "coordinates": [[[[-117.20676894642604, 32.9791256194654], [-117.20464858894185, 32.97875961383457], [-117.2044350631394, 32.978740655875086], [-117.20442989063818, 32.978740000409445], [-117.20423586690009, 32.97855329268374], [-117.20367575258352, 32.978021646205256], [-117.20363631032185, 32.97798428188059], [-117.2032351098882, 32.977605209643514], [-117.2025656733555, 32.977606414128246], [-117.20201449787032, 32.97760762839807], [-117.20195550583318, 32.97760776356529], [-117.20168820529412, 32.97760847904715], [-117.20146988614907, 32.97760909755927], [-117.20025377828959, 32.97761309141544], [-117.20025169333015, 32.97750803173092], [-117.20024373244638, 32.97718284744438], [-117.20023983565692, 32.97678748434857], [-117.20023437664078, 32.976443964730784], [-117.20022791471777, 32.9760867019931], [-117.20022565208603, 32.97591906273834], [-117.20022171474267, 32.97568821776408], [-117.20021507019916, 32.97525675476681], [-117.2002073075883, 32.9748033067344], [-117.20019280343811, 32.97399474740195], [-117.20018553332785, 32.97399488295545], [-117.19973849712585, 32.97399331931777], [-117.19871798763977, 32.97398960409388], [-117.19775863556823, 32.9739862859049], [-117.19645120689289, 32.97398024796247], [-117.19592489376767, 32.97397830962486], [-117.19422841961268, 32.97397615992727], [-117.19166326395737, 32.973966404242205], [-117.18984133375798, 32.97396321992512], [-117.18925438030064, 32.97396128791935], [-117.1887294493256, 32.973959253503395], [-117.18862981404472, 32.973959086097395], [-117.18818812539887, 32.973958347151196], [-117.18791362289711, 32.973956580933695], [-117.18789137781788, 32.97395658469263], [-117.18759718994481, 32.97395451352629], [-117.18758825521945, 32.97395449879461], [-117.18740734091634, 32.97395397348241], [-117.18738148197122, 32.97395389184769], [-117.18704011807368, 32.973951003238845], [-117.18672718949941, 32.97394975634926], [-117.1866619872218, 32.97394949700594], [-117.18632281617583, 32.97394736489315], [-117.18577498309031, 32.97394454306126], [-117.18543646328604, 32.97394293130594], [-117.18525485859038, 32.97394156427403], [-117.18520437538284, 32.97394037106682], [-117.18504505502843, 32.9739399318996], [-117.18477386828717, 32.97393687758131], [-117.18450646888736, 32.97393703455025], [-117.18305037678086, 32.97392356208653], [-117.18302183952572, 32.97392336506623], [-117.18289835404013, 32.97392249891461], [-117.18171550293783, 32.973914192013495], [-117.18071847965773, 32.973908510539275], [-117.18063392797397, 32.97390763776692], [-117.18029692262027, 32.973903353739104], [-117.1794275310298, 32.97389806515764], [-117.1786488526851, 32.97389258694805], [-117.178613684238, 32.973013003534554], [-117.1786127999086, 32.97281019213821], [-117.1786112328614, 32.97254863097011], [-117.17861055613936, 32.97238336540385], [-117.17860821940579, 32.97188694433801], [-117.17860810862162, 32.97186318979826], [-117.17860796674151, 32.97181859354093], [-117.1786074969515, 32.971738642913124], [-117.17860728065526, 32.971702125085], [-117.17860525270218, 32.97127565951001], [-117.17860554533587, 32.97115800459242], [-117.17860718457729, 32.97104713388147], [-117.17860801472358, 32.97078500773987], [-117.17860461368137, 32.970241856209114], [-117.17850831644803, 32.97024150720243], [-117.17768227364812, 32.970238794632856], [-117.1776169996546, 32.97023857780518], [-117.17755185497045, 32.97023609245266], [-117.17643691770176, 32.9702332838628], [-117.174910182057, 32.97022941966577], [-117.17457204410265, 32.97017870079898], [-117.1744447237234, 32.970181312537974], [-117.17438279127823, 32.97018258070977], [-117.17434116503469, 32.97018343324668], [-117.17428584050413, 32.97018456678483], [-117.17422217052578, 32.9701858725965], [-117.17358890322481, 32.97019884556131], [-117.1731028647095, 32.970208798142295], [-117.1727565833268, 32.97021588951083], [-117.17254165823583, 32.970220290690655], [-117.17243636515681, 32.97022244472781], [-117.17231345206834, 32.97022496093702], [-117.17214863216256, 32.97023080457244], [-117.17203449504366, 32.970230674227], [-117.16986586090579, 32.97023101982592], [-117.1698584081922, 32.97134268184725], [-117.16985412522322, 32.9719814806838], [-117.1698530369687, 32.972144181203284], [-117.1698518576588, 32.9723199900324], [-117.16985120755285, 32.97241956506012], [-117.16984240100278, 32.97377264669412], [-117.16984203031639, 32.97382882344952], [-117.16984199496035, 32.97383448014119], [-117.16984185349892, 32.97385648024811], [-117.1698238475562, 32.97392596448889], [-117.16985110160968, 32.977352595309334], [-117.16985131426279, 32.97739596517039], [-117.16985160928704, 32.97744595832093], [-117.16985165397088, 32.97745085033129], [-117.16985164869905, 32.97753664227119], [-117.16985143396944, 32.97754790450153], [-117.16985178453739, 32.97757111578555], [-117.16985177880467, 32.9775914410381], [-117.16985165553423, 32.977619229361395], [-117.16985109441431, 32.97774101713391], [-117.16984916612996, 32.97816335881832], [-117.16984852587593, 32.97829067167478], [-117.16984738905275, 32.97851790194783], [-117.16984720570471, 32.97855365863813], [-117.1698439659708, 32.979168171913805], [-117.16984320125785, 32.9793290806879], [-117.16554644530741, 32.98049403867491], [-117.16554646149287, 32.98033909154752], [-117.16555040803605, 32.979622389466535], [-117.16555334334488, 32.97896513128195], [-117.16556022140263, 32.977590827379274], [-117.16555916110292, 32.97748905529758], [-117.16503421854512, 32.97749310165267], [-117.16342345186686, 32.97750740844193], [-117.16330770075913, 32.977508507725716], [-117.16273102680871, 32.97751348693255], [-117.16221050076378, 32.97751798069805], [-117.16163010935736, 32.97752296569443], [-117.16140675686897, 32.97752492209859], [-117.16120980911347, 32.977526669856374], [-117.16104980330005, 32.977535557949174], [-117.16049413311383, 32.97756701329113], [-117.15989284517711, 32.97760095101804], [-117.15958323825626, 32.97761837772596], [-117.15928993488548, 32.97763476856458], [-117.15871470968973, 32.9776673546041], [-117.1581443833225, 32.977699437504086], [-117.15795698990182, 32.9777100453244], [-117.15757568647952, 32.97773146733688], [-117.15700698596135, 32.97776349457915], [-117.15643665035068, 32.97779574281999], [-117.1563291082408, 32.97780174471282], [-117.1558679522622, 32.97782776480182], [-117.15529762707561, 32.97785983455297], [-117.15522127126854, 32.97786415053667], [-117.15470145427443, 32.97789433074331], [-117.15462463235679, 32.97789867175528], [-117.15383142068528, 32.977943317284414], [-117.1539015455121, 32.977495205619896], [-117.15411994114802, 32.97716993206308], [-117.15417054534647, 32.97713902081827], [-117.1542526928251, 32.97708884009032], [-117.15390096981318, 32.97602145948497], [-117.15389927765682, 32.976015458124024], [-117.15389760494878, 32.97601134759145], [-117.15389593577433, 32.97600758059602], [-117.15389589337308, 32.976003458150416], [-117.1538942206654, 32.9759993476178], [-117.15389255146306, 32.97599557787398], [-117.15389250911849, 32.97599146092497], [-117.15389083641124, 32.9759873503923], [-117.15389079398194, 32.97598322519838], [-117.15388911067468, 32.97597808405429], [-117.15388743796781, 32.97597397352157], [-117.15388739556698, 32.97596985107594], [-117.15388572286034, 32.97596574054322], [-117.15388568045958, 32.9759616180976], [-117.15388401128659, 32.97595785110195], [-117.1538839688859, 32.975953728656314], [-117.15388229291914, 32.975949618147354], [-117.15388225051855, 32.97594549570173], [-117.15388058107325, 32.9759413851451], [-117.15388053867275, 32.97593726269944], [-117.15388049627224, 32.97593314025381], [-117.15387882356663, 32.97592902972097], [-117.15387877056612, 32.97592387666393], [-117.15387709460016, 32.975919766154895], [-117.15387705219983, 32.975915643709264], [-117.1538770097995, 32.975911521263605], [-117.15387696739917, 32.97590739881794], [-117.15387529795484, 32.975903288261236], [-117.15387525555458, 32.97589916581559], [-117.15387521315435, 32.975895043369924], [-117.1538751707541, 32.97589092092428], [-117.15387349804956, 32.97588681039138], [-117.1538734556494, 32.97588268794571], [-117.15387341324927, 32.97587856550007], [-117.15387337084913, 32.97587444305439], [-117.15387332844897, 32.97587032060873], [-117.15387328604885, 32.975866198163075], [-117.15387324364872, 32.97586207571742], [-117.15387320124859, 32.97585795327177], [-117.15387315884847, 32.9758538308261], [-117.15387311644837, 32.975849708380466], [-117.15387307404824, 32.97584558593479], [-117.15387303164813, 32.97584146348912], [-117.153872989248, 32.975837341043466], [-117.15387294684791, 32.97583321859779], [-117.15387290444781, 32.97582909615211], [-117.15387286204773, 32.97582497370645], [-117.15387281964763, 32.975820851260785], [-117.15387277724754, 32.97581672881514], [-117.15387273484745, 32.975812606369466], [-117.15387432275024, 32.97580847201106], [-117.15387428035008, 32.97580434956538], [-117.15387423794996, 32.97580022711972], [-117.1538741955498, 32.97579610467403], [-117.15387415314966, 32.97579198222837], [-117.15387573779141, 32.975787847893756], [-117.15387569539118, 32.975783725448096], [-117.15387565299098, 32.97577960300242], [-117.15387724415365, 32.97577546862017], [-117.15387718230578, 32.975769455346075], [-117.15387875078824, 32.97576343290747], [-117.15387870838788, 32.97575931046181], [-117.15387866598755, 32.97575518801612], [-117.1538802506284, 32.975751053681456], [-117.15388181705673, 32.97574451453916], [-117.15342703350385, 32.97575470812728], [-117.15341446402968, 32.97532500267773], [-117.15357827992405, 32.97492458599634], [-117.1540046246218, 32.974686133027575], [-117.15408499965557, 32.974733298109385], [-117.15408822844238, 32.974730185192236], [-117.15409145363824, 32.974726723241254], [-117.15409467886214, 32.974723264038495], [-117.15409789701742, 32.97471911776134], [-117.15410274192077, 32.97471461603121], [-117.15410596007536, 32.97471046975385], [-117.15411080851202, 32.97470631156055], [-117.15411402666592, 32.97470216528298], [-117.15411887510174, 32.97469800708935], [-117.15412372353711, 32.97469384889556], [-117.15412694168997, 32.97468970261763], [-117.15413299584428, 32.974684834742135], [-117.15414149759522, 32.97467825864617], [-117.15414472632146, 32.974675140230936], [-117.15414958185137, 32.97467167185872], [-117.15415281413974, 32.97466889972875], [-117.15415767997008, 32.97466611565837], [-117.15416212433763, 32.97466230123102], [-117.15416899678519, 32.97465710030044], [-117.1541754807849, 32.97465344411954], [-117.15418195420885, 32.974648760075155], [-117.1541884382074, 32.97464510389359], [-117.1541949151646, 32.97464076338567], [-117.15419978126606, 32.97463832287462], [-117.15420464029808, 32.97463519528907], [-117.15421113108987, 32.97463188261965], [-117.15421761538832, 32.974628572745814], [-117.1542224779821, 32.974625791445014], [-117.15422734758837, 32.97462369172175], [-117.15423221015332, 32.97462090767227], [-117.15423707978736, 32.97461881069691], [-117.15424195295593, 32.9746170572585], [-117.15424681905478, 32.9746146167456], [-117.15425168868813, 32.97461251976967], [-117.15425656185606, 32.97461076633069], [-117.15426142795415, 32.974608325817215], [-117.15426630112165, 32.97460657237785], [-117.15427117428894, 32.97460481893831], [-117.15427604392117, 32.97460272196139], [-117.15428092062294, 32.97460131205864], [-117.15428579378967, 32.97459955861847], [-117.15429067049111, 32.9745981487153], [-117.1542955471924, 32.97459673881195], [-117.15430041682359, 32.97459464183408], [-117.15430529705952, 32.97459357546748], [-117.15431017376032, 32.97459216556353], [-117.15431505046095, 32.974590755659406], [-117.15431993069647, 32.97458968929223], [-117.15432480739682, 32.97458827938769], [-117.15421901753542, 32.9742894658236], [-117.15379847339169, 32.97398195834093], [-117.15347378927984, 32.9736417979621], [-117.15359810315852, 32.973046869493814], [-117.15371614873834, 32.97247672320384], [-117.15385902574654, 32.97178477401434], [-117.1540237550019, 32.970998185072446], [-117.15403026199462, 32.97099710682562], [-117.15425486739827, 32.97096007804627], [-117.15459190421119, 32.97091707322042], [-117.15493236001757, 32.97088915923556], [-117.156263739888, 32.970830969248276], [-117.15646858448022, 32.96998464649356], [-117.15695099396437, 32.96886281212155], [-117.15792522404219, 32.96784937084141], [-117.1594384594018, 32.967566835975305], [-117.16085183546944, 32.96677345492367], [-117.16129982276597, 32.96624472300809], [-117.1617505167143, 32.96571278119624], [-117.16297909199163, 32.965024837254376], [-117.16314470206079, 32.964960055447165], [-117.16334275679256, 32.96487991704114], [-117.16353914892971, 32.96479669852433], [-117.1637322519321, 32.96471075548435], [-117.16389203616635, 32.96463735790779], [-117.16392532597939, 32.964622063846164], [-117.16407560687631, 32.96454940413958], [-117.16411510729611, 32.96453030416833], [-117.16428507675842, 32.964445649872005], [-117.16430485962731, 32.9644357959026], [-117.16449132277796, 32.964338563154485], [-117.16467449674165, 32.96423860593876], [-117.16485764168226, 32.964135900155064], [-117.16503750099348, 32.964030813460276], [-117.16521569759892, 32.96392264673252], [-117.1653922386704, 32.9638120898012], [-117.16556549406587, 32.96369914924363], [-117.16573546020469, 32.96358348153653], [-117.16590540086564, 32.96346541158447], [-117.1660704221871, 32.96334462657447], [-117.16623542162539, 32.96322178561822], [-117.16628099114465, 32.963186044492836], [-117.1663955017234, 32.9630962296302], [-117.16655392980671, 32.96296862429215], [-117.16671069870549, 32.96283828253635], [-117.16686255904712, 32.962706259147964], [-117.16701276020359, 32.962571499362284], [-117.16716130933804, 32.96243469025926], [-117.16730494634699, 32.96229585602438], [-117.16744692775347, 32.96215462895453], [-117.16758563068156, 32.96201170822277], [-117.16772267797906, 32.9618663919226], [-117.16785481682476, 32.961719399572395], [-117.16798530363533, 32.961570355208494], [-117.16811088195914, 32.96141962932226], [-117.16823480828769, 32.96126685418757], [-117.1683554525927, 32.96111204191305], [-117.16847282206265, 32.96095587958211], [-117.16981574404893, 32.95938469367667], [-117.16981526079827, 32.955720183356526], [-117.16944951394073, 32.95211490356807], [-117.16941536359113, 32.95034339888777], [-117.16981956579929, 32.94861985824862], [-117.16938348712316, 32.941444077761254], [-117.16918355602118, 32.9394816975686], [-117.16918314888534, 32.93948141474996], [-117.16918260091455, 32.93930772661784], [-117.1691788671482, 32.93852691039125], [-117.16919998279207, 32.93836424764745], [-117.16919786673323, 32.937538335521126], [-117.16918699600663, 32.93447210464545], [-117.16918786416794, 32.93439926536145], [-117.16919617750095, 32.93176509785495], [-117.16918848368601, 32.93087326267742], [-117.16918514731253, 32.93055411643511], [-117.16917352128006, 32.92928610774714], [-117.1693510927894, 32.92912537092601], [-117.16940267077864, 32.929071050554015], [-117.1694834419594, 32.929003454861295], [-117.16958703943057, 32.928937063589544], [-117.16971679387274, 32.92887872318641], [-117.16985488576648, 32.92883852951273], [-117.16995086397709, 32.928822698550604], [-117.1699997037287, 32.92881821235293], [-117.17012525607154, 32.92882552353987], [-117.17023929816122, 32.92882295691459], [-117.17035325034821, 32.928811801749376], [-117.17044922124748, 32.92879528332557], [-117.17061984728551, 32.92874969310812], [-117.17075292437299, 32.92869751102309], [-117.17083722285346, 32.92865565547793], [-117.17090362638577, 32.92861668443303], [-117.17099261865283, 32.92855623860352], [-117.17107502838634, 32.92848966309173], [-117.17113955748283, 32.928427338021386], [-117.17122487307284, 32.92832706871801], [-117.17126662250122, 32.92826800814351], [-117.17131623459667, 32.92818174738977], [-117.17136447313169, 32.92812023622221], [-117.17147075057409, 32.92799850679423], [-117.1716174933312, 32.927851054623474], [-117.17183554059953, 32.927665965686344], [-117.17201022702967, 32.92754166704389], [-117.17206202216856, 32.927508298589764], [-117.17365744607625, 32.92674329637609], [-117.17373858354388, 32.92671107949324], [-117.17386037959173, 32.92667100581096], [-117.1740001391838, 32.92663526133731], [-117.17409608897057, 32.92661702239479], [-117.17419208565727, 32.926603249362714], [-117.17430604529977, 32.926593121165325], [-117.17440377605043, 32.92658929836858], [-117.1745178584591, 32.92659085024406], [-117.1746320058962, 32.92659858568558], [-117.17472826985794, 32.9266102367451], [-117.17487194141715, 32.92663630084995], [-117.1749814035087, 32.926663654186854], [-117.17634973987134, 32.927083894982914], [-117.17641342386968, 32.92709647323148], [-117.17647707530897, 32.92710595961214], [-117.17654228014003, 32.92710821946672], [-117.17662370294637, 32.927103145628635], [-117.17667566657093, 32.927086262304194], [-117.17697287876685, 32.92699195891739], [-117.17771995007779, 32.92675410834179], [-117.17776379859313, 32.926740033967846], [-117.17788565118684, 32.92670579372869], [-117.17797492316599, 32.92667248505597], [-117.1780608710361, 32.92663301711238], [-117.17816777240533, 32.926571747239706], [-117.17824380596511, 32.92651929815281], [-117.17836927312256, 32.92636443918166], [-117.17843181791606, 32.92626914571438], [-117.17847683842388, 32.926211775913785], [-117.17855740773, 32.92612596681523], [-117.17863652165032, 32.926056659687745], [-117.17874973985236, 32.92597644580891], [-117.17888419051711, 32.925900882197546], [-117.1790009900636, 32.92585121841213], [-117.17912278649423, 32.92581182389493], [-117.17949241798571, 32.925786713692865], [-117.17951684406759, 32.92578515853422], [-117.18145782136435, 32.92565407859985], [-117.18160587557925, 32.92563234914205], [-117.18176701563199, 32.92561533078396], [-117.18205853784183, 32.925600421381354], [-117.18212213418181, 32.925604751799916], [-117.18267708496228, 32.92569161096443], [-117.18283874972276, 32.92572406054723], [-117.18296760119505, 32.92573545654919], [-117.18313051272294, 32.925731822063085], [-117.1832037468887, 32.925723023726775], [-117.18322815827405, 32.92572009093837], [-117.1833387256897, 32.92569760893173], [-117.18392267171488, 32.92544583523472], [-117.18413822764497, 32.92533598381308], [-117.1843665806448, 32.92520370359217], [-117.18459798719867, 32.9250521602405], [-117.18475805597771, 32.92493482519841], [-117.18491155499329, 32.92481204259451], [-117.18511333169896, 32.92463255002995], [-117.18528100823362, 32.92446430918416], [-117.18541788374435, 32.924311074446145], [-117.18559156106541, 32.92409434514519], [-117.18574721939054, 32.92386847573729], [-117.18584329077561, 32.92370936519761], [-117.18594870226313, 32.92350895610539], [-117.18596784829447, 32.92347067272297], [-117.18599610846368, 32.92337014062113], [-117.18612478326651, 32.922906041115326], [-117.18656107816238, 32.92133882996563], [-117.18663077629404, 32.92115140269721], [-117.18673197900279, 32.92101492781116], [-117.18673839772644, 32.9210059464903], [-117.18683639358257, 32.920874992851324], [-117.18713671579145, 32.920617104377975], [-117.18741857225378, 32.9204610503575], [-117.18850701670479, 32.920155951849154], [-117.18895874954096, 32.920039829513165], [-117.18930914408509, 32.91989424735918], [-117.18943534933655, 32.91981117634297], [-117.1911827977135, 32.918662402430876], [-117.19134163932299, 32.91858423442491], [-117.19151992848734, 32.91849629827621], [-117.19163663013428, 32.91843906472891], [-117.19182826163025, 32.918379885949705], [-117.19251171467371, 32.91829771834868], [-117.1929316437818, 32.918256036635086], [-117.19294793977062, 32.91825625589568], [-117.1933520736858, 32.91826107450554], [-117.19386571692054, 32.91844955008949], [-117.1943553664985, 32.91867943465144], [-117.194494560169, 32.91874433570621], [-117.19681974204934, 32.91920479372319], [-117.19746960709233, 32.9193317407991], [-117.19772732474647, 32.919357250469965], [-117.19780390691257, 32.91935735045584], [-117.19802388116919, 32.919357725071954], [-117.19837858021303, 32.919311028062985], [-117.198632061207, 32.91924586716288], [-117.19896303388717, 32.91911414639147], [-117.19929329354552, 32.91891646569537], [-117.1999332041504, 32.9178203870539], [-117.20004742021882, 32.917533663081564], [-117.20011634426373, 32.9172775208563], [-117.20014673113312, 32.91707389671016], [-117.20020916741292, 32.916820552812624], [-117.2002314714125, 32.91677365649763], [-117.20030484066864, 32.91662742084306], [-117.2004074461134, 32.916472714799234], [-117.20055865964392, 32.916292898199174], [-117.20069426400602, 32.91617641745533], [-117.20074598214086, 32.916137540385705], [-117.2015269878223, 32.91528567338991], [-117.20177981604625, 32.915010936138955], [-117.20271127041421, 32.914662943937245], [-117.20439210768437, 32.914307786751635], [-117.20534658113276, 32.913381032719116], [-117.20547635788648, 32.91317904389293], [-117.20555487530554, 32.91305784549362], [-117.20625188587503, 32.91197984410418], [-117.20634643072391, 32.91183446886027], [-117.2064874422738, 32.91161727787269], [-117.20736708295246, 32.91025647648117], [-117.20739608103696, 32.91022636168134], [-117.21150313307535, 32.9079722995782], [-117.21200753732309, 32.90761587643702], [-117.21219991115305, 32.90747901415285], [-117.212204734344, 32.90747313598961], [-117.21236680292243, 32.906948967286894], [-117.21270431804844, 32.90697451129254], [-117.21294553743952, 32.90698431347931], [-117.21295362561041, 32.906978753415146], [-117.21325883874827, 32.90673244353464], [-117.21342173593385, 32.90658206365591], [-117.21358588148861, 32.90639697918572], [-117.21369188656408, 32.90625838287524], [-117.21400932367727, 32.90579003233183], [-117.21412644034035, 32.90562489440862], [-117.21416353812211, 32.905590935582396], [-117.22288245513, 32.90409990995281], [-117.22354372026345, 32.904380547284205], [-117.22384164186299, 32.90450909893619], [-117.22689638131813, 32.90921624138174], [-117.22771660222163, 32.91045483966234], [-117.22787069598618, 32.91068621494174], [-117.2288758357607, 32.91214150712754], [-117.22929617546808, 32.91272601930448], [-117.22991179784078, 32.91358177365291], [-117.23018956712235, 32.91394512571281], [-117.23039112239421, 32.914194674134066], [-117.23053744452821, 32.914369309452496], [-117.2305375700905, 32.914369465122675], [-117.23072798197325, 32.91459672287571], [-117.23075091013988, 32.91462424613663], [-117.23081385524415, 32.91469979850817], [-117.23100533629085, 32.91492228415833], [-117.23102857518049, 32.91494785069864], [-117.23104876241939, 32.914970060763245], [-117.2311290528044, 32.91505838790553], [-117.23119501412197, 32.91512646763253], [-117.23122675696308, 32.91515923099717], [-117.23129388217983, 32.915228516283356], [-117.23135455548974, 32.91528612752961], [-117.23147372536354, 32.91539928658075], [-117.23154254385355, 32.91546463339015], [-117.23157769609061, 32.91549511580004], [-117.23170335003748, 32.9156040811115], [-117.23179262126298, 32.91568149905584], [-117.2320424850735, 32.91587912621522], [-117.23294261781024, 32.916528870428444], [-117.23448530842961, 32.91795819770835], [-117.23628817861895, 32.91962695757872], [-117.23634336919278, 32.91967951713542], [-117.23646033854946, 32.919790913468155], [-117.23655828536467, 32.91988419202591], [-117.23666111292322, 32.919988695028565], [-117.23671599459382, 32.920044469919], [-117.23678738471382, 32.92011702196593], [-117.23690079021374, 32.92024091641898], [-117.23701143791156, 32.920361803908754], [-117.23706617291606, 32.92042160091733], [-117.23713672893068, 32.92050427401746], [-117.23713679493432, 32.92050434770074], [-117.23713685764854, 32.920504418661714], [-117.23718682747659, 32.92056297010542], [-117.2372659597161, 32.920655691985864], [-117.23733290668685, 32.92073906718906], [-117.23733297936217, 32.92073915456157], [-117.23733305538859, 32.920739250152934], [-117.23736623808134, 32.9207805758835], [-117.23743947476152, 32.92087178357826], [-117.23749447790777, 32.92094466676015], [-117.23757084785183, 32.92104585125138], [-117.23764953697554, 32.92115011201286], [-117.23768896019396, 32.92120648272898], [-117.23768902312526, 32.921206572927716], [-117.23773495454553, 32.921272247628], [-117.23783997640199, 32.92142241270981], [-117.23786780560565, 32.921464927224726], [-117.23788276966228, 32.9214877881065], [-117.23799747880882, 32.92166302469632], [-117.23803320922629, 32.92172134054408], [-117.2380332623208, 32.921721425324186], [-117.23810537048732, 32.92183909900542], [-117.23827833783278, 32.92215104881916], [-117.23919072514182, 32.924749701916376], [-117.23945337567163, 32.92550035378277], [-117.24002349611145, 32.92721877443741], [-117.24041144680125, 32.92838688458724], [-117.24072376135975, 32.92978338411794], [-117.24073240014322, 32.92982694780759], [-117.24081732543337, 32.93027736699261], [-117.2409230832536, 32.93098564290809], [-117.2409318525985, 32.93104308561398], [-117.24103291735608, 32.93160692805983], [-117.24111112474955, 32.931988770092495], [-117.24119350941073, 32.93242336135654], [-117.24143697361785, 32.93580519310818], [-117.24162249735383, 32.93780463488795], [-117.24175775047618, 32.939103604531674], [-117.2417701666064, 32.93933712994057], [-117.2417832578631, 32.93948862556952], [-117.24178689801253, 32.93953074506922], [-117.24179265624633, 32.93959736995826], [-117.24181418460472, 32.93975649653798], [-117.24183129674819, 32.93988300875811], [-117.24184066336794, 32.939952235042405], [-117.24185792258874, 32.940042660637246], [-117.24192034315413, 32.94036971588662], [-117.24257528087088, 32.94381352081995], [-117.24281956239683, 32.94509512277216], [-117.24374208911553, 32.94999933357317], [-117.24430285431986, 32.95317487356296], [-117.24495795356502, 32.95661625920575], [-117.24503421282414, 32.95701693076407], [-117.24561933524514, 32.959744258493465], [-117.2456244120024, 32.95976070879135], [-117.24565662710522, 32.9598703905607], [-117.24610931983494, 32.961409700143264], [-117.24628339573525, 32.96195388076641], [-117.24642675428991, 32.962376680778185], [-117.24665398519666, 32.9630077038827], [-117.24688577376975, 32.9636087941058], [-117.24712552229215, 32.964193328563404], [-117.24736153370476, 32.96473529052242], [-117.25037840088994, 32.97283832293017], [-117.2502352185799, 32.97286422033474], [-117.24942242948667, 32.9729315986024], [-117.24803661445716, 32.97350726662126], [-117.24705921137082, 32.97401194512178], [-117.24613604103313, 32.974699299610656], [-117.24461594421139, 32.97623558910435], [-117.24409979835167, 32.97644209834254], [-117.24336014736997, 32.976781298957576], [-117.24260582682247, 32.97683270484292], [-117.2421158599914, 32.97690363082035], [-117.2411092592267, 32.976560576039546], [-117.24002246818321, 32.97676923405386], [-117.23924162253181, 32.97736126021284], [-117.23866534617264, 32.97816637492243], [-117.23847491902896, 32.978486725468095], [-117.2379053876737, 32.97887812982271], [-117.2376340230195, 32.97896069098861], [-117.23722615990626, 32.97908453812625], [-117.23643350036792, 32.979063376287534], [-117.23573677793087, 32.97887344147146], [-117.23513223583019, 32.978761098833694], [-117.23443595737929, 32.97861032513652], [-117.2338782640326, 32.9784587806807], [-117.23263038648413, 32.97826324751833], [-117.23165229532773, 32.978280976568946], [-117.23068159819395, 32.97852298733922], [-117.23040735958931, 32.97826338095558], [-117.22980249008222, 32.97864711481177], [-117.22882808557817, 32.97870054505521], [-117.22686986435413, 32.97870053661656], [-117.22669867799831, 32.97870188834824], [-117.22652751835955, 32.978705644587535], [-117.22635801250962, 32.978711792492305], [-117.22618691333983, 32.978720701258595], [-117.22601583758299, 32.978732014558595], [-117.22584641883297, 32.97874571950537], [-117.22567702672914, 32.97876182896477], [-117.22550766507113, 32.97878068647189], [-117.22533833329096, 32.978801948466156], [-117.22517065194141, 32.978825602172435], [-117.22500300425446, 32.97885200390548], [-117.22479307407096, 32.97888835843014], [-117.22168555611981, 32.9794570908515], [-117.2207738840332, 32.97962392935579], [-117.2205965342556, 32.9796576160934], [-117.22041920816969, 32.979694050908655], [-117.22024354590738, 32.97973322093747], [-117.22006791003435, 32.97977479546254], [-117.2198939346958, 32.97981910523624], [-117.21971998571819, 32.97986581951096], [-117.21954769724735, 32.979915269043694], [-117.21937706548043, 32.97996711030622], [-117.21920646003457, 32.98002135607918], [-117.21903751505698, 32.98007833712621], [-117.21886859637345, 32.98013772268831], [-117.21870296472068, 32.98019948723135], [-117.21853735933917, 32.98026365629846], [-117.21837341059319, 32.98033021712693], [-117.21820949187907, 32.98039952601908], [-117.21804885637343, 32.98047087038776], [-117.2178898774752, 32.98054460653726], [-117.21773092476207, 32.98062074448009], [-117.21757526234201, 32.980699266931076], [-117.21741961956565, 32.98078019123478], [-117.21726726322703, 32.980863151031485], [-117.21711493306617, 32.98094851538644], [-117.21696588607246, 32.98103591527603], [-117.21681849185264, 32.9811253634545], [-117.21667275421076, 32.98121720621111], [-117.21652867304941, 32.981311435306864], [-117.21638624089697, 32.98140737192202], [-117.21624546149769, 32.98150535684909], [-117.21610796902584, 32.981605720896006], [-117.21604328168394, 32.98165432512343], [-117.21550506742167, 32.98150489307759], [-117.20676894642604, 32.9791256194654]]]]}, "properties": {"id": 92130, "call_count": 51, "bin_label": "51-100", "week": 15}}]}